[
  {
    "Address1": "1745 T Street Southeast",
    "Address2": "",
    "City": "Washington",
    "State": "DC",
    "Zipcode": "20020"
  },
  {
    "Address1": "6007 Applegate Lane",
    "Address2": "",
    "City": "Louisville",
    "State": "KY",
    "Zipcode": "40219"
  },
  {
    "Address1": "560 Penstock Drive",
    "Address2": "",
    "City": "Grass Valley",
    "State": "CA",
    "Zipcode": "95945"
  },
  {
    "Address1": "150 Carter Street",
    "Address2": "",
    "City": "Manchester",
    "State": "CT",
    "Zipcode": "06040"
  },
  {
    "Address1": "2721 Lindsay Avenue",
    "Address2": "",
    "City": "Louisville",
    "State": "KY",
    "Zipcode": "40206"
  },
  {
    "Address1": "18 Densmore Drive",
    "Address2": "",
    "City": "Essex",
    "State": "VT",
    "Zipcode": "05452"
  },
  {
    "Address1": "637 Britannia Drive",
    "Address2": "",
    "City": "Vallejo",
    "State": "CA",
    "Zipcode": "94591"
  },
  {
    "Address1": "5601 West Crocus Drive",
    "Address2": "",
    "City": "Glendale",
    "State": "AZ",
    "Zipcode": "85306"
  },
  {
    "Address1": "5403 Illinois Avenue",
    "Address2": "",
    "City": "Nashville",
    "State": "TN",
    "Zipcode": "37209"
  },
  {
    "Address1": "8821 West Myrtle Avenue",
    "Address2": "",
    "City": "Glendale",
    "State": "AZ",
    "Zipcode": "85305"
  },
  {
    "Address1": "2203 7th Street Road",
    "Address2": "",
    "City": "Louisville",
    "State": "KY",
    "Zipcode": "40208"
  },
  {
    "Address1": "6463 Vrain Street",
    "Address2": "",
    "City": "Arvada",
    "State": "CO",
    "Zipcode": "80003"
  },
  {
    "Address1": "87 Horseshoe Drive",
    "Address2": "",
    "City": "West Windsor",
    "State": "VT",
    "Zipcode": "05037"
  },
  {
    "Address1": "60 Desousa Drive",
    "Address2": "",
    "City": "Manchester",
    "State": "CT",
    "Zipcode": "06040"
  },
  {
    "Address1": "4 Old Colony Way",
    "Address2": "",
    "City": "Yarmouth",
    "State": "MA",
    "Zipcode": "02664"
  },
  {
    "Address1": "314 South 17th Street",
    "Address2": "",
    "City": "Nashville",
    "State": "TN",
    "Zipcode": "37206"
  },
  {
    "Address1": "1649 Timberridge Court",
    "Address2": "",
    "City": "Fayetteville",
    "State": "AR",
    "Zipcode": "72704"
  },
  {
    "Address1": "5461 West Shades Valley Drive",
    "Address2": "",
    "City": "Montgomery",
    "State": "AL",
    "Zipcode": "36108"
  },
  {
    "Address1": "629 Debbie Drive",
    "Address2": "",
    "City": "Nashville",
    "State": "TN",
    "Zipcode": "37076"
  },
  {
    "Address1": "22572 Toreador Drive",
    "Address2": "",
    "City": "Salinas",
    "State": "CA",
    "Zipcode": "93908"
  },
  {
    "Address1": "3034 Mica Street",
    "Address2": "",
    "City": "Fayetteville",
    "State": "AR",
    "Zipcode": "72704"
  },
  {
    "Address1": "3729 East Mission Boulevard",
    "Address2": "",
    "City": "Fayetteville",
    "State": "AR",
    "Zipcode": "72703"
  },
  {
    "Address1": "5114 Greentree Drive",
    "Address2": "",
    "City": "Nashville",
    "State": "TN",
    "Zipcode": "37211"
  },
  {
    "Address1": "3466 Southview Avenue",
    "Address2": "",
    "City": "Montgomery",
    "State": "AL",
    "Zipcode": "36111"
  },
  {
    "Address1": "1513 Cathy Street",
    "Address2": "",
    "City": "Savannah",
    "State": "GA",
    "Zipcode": "31415"
  },
  {
    "Address1": "600 West 19th Avenue",
    "Address2": "APT B",
    "City": "Anchorage",
    "State": "AK",
    "Zipcode": "99503"
  },
  {
    "Address1": "1208 Elkader Court North",
    "Address2": "",
    "City": "Nashville",
    "State": "TN",
    "Zipcode": "37013"
  },
  {
    "Address1": "210 Green Road",
    "Address2": "",
    "City": "Manchester",
    "State": "CT",
    "Zipcode": "06042"
  },
  {
    "Address1": "49548 Road 200",
    "Address2": "",
    "City": "O'Neals",
    "State": "CA",
    "Zipcode": "93645"
  },
  {
    "Address1": "81 Seaton Place Northwest",
    "Address2": "",
    "City": "Washington",
    "State": "DC",
    "Zipcode": "20001"
  },
  {
    "Address1": "1267 Martin Street",
    "Address2": "#203",
    "City": "Nashville",
    "State": "TN",
    "Zipcode": "37203"
  },
  {
    "Address1": "7431 Candace Way",
    "Address2": "#1",
    "City": "Louisville",
    "State": "KY",
    "Zipcode": "40214"
  },
  {
    "Address1": "1407 Walden Court",
    "Address2": "",
    "City": "Crofton",
    "State": "MD",
    "Zipcode": "21114"
  },
  {
    "Address1": "5906 Milton Avenue",
    "Address2": "",
    "City": "Deale",
    "State": "MD",
    "Zipcode": "20751"
  },
  {
    "Address1": "74 Springfield Street",
    "Address2": "B",
    "City": "Agawam",
    "State": "MA",
    "Zipcode": "01001"
  },
  {
    "Address1": "2905 Stonebridge Court",
    "Address2": "",
    "City": "Norman",
    "State": "OK",
    "Zipcode": "73071"
  },
  {
    "Address1": "20930 Todd Valley Road",
    "Address2": "",
    "City": "Foresthill",
    "State": "CA",
    "Zipcode": "95631"
  },
  {
    "Address1": "5928 West Mauna Loa Lane",
    "Address2": "",
    "City": "Glendale",
    "State": "AZ",
    "Zipcode": "85306"
  },
  {
    "Address1": "802 Madison Street Northwest",
    "Address2": "",
    "City": "Washington",
    "State": "DC",
    "Zipcode": "20011"
  },
  {
    "Address1": "2811 Battery Place Northwest",
    "Address2": "",
    "City": "Washington",
    "State": "DC",
    "Zipcode": "20016"
  },
  {
    "Address1": "210 Lacross Lane",
    "Address2": "",
    "City": "Westmore",
    "State": "VT",
    "Zipcode": "05860"
  },
  {
    "Address1": "2010 Rising Hill Drive",
    "Address2": "",
    "City": "Norman",
    "State": "OK",
    "Zipcode": "73071"
  },
  {
    "Address1": "388 East Main Street",
    "Address2": "",
    "City": "Middlebury",
    "State": "VT",
    "Zipcode": "05753"
  },
  {
    "Address1": "450 Kinhawk Drive",
    "Address2": "",
    "City": "Nashville",
    "State": "TN",
    "Zipcode": "37211"
  },
  {
    "Address1": "131 Westerly Street",
    "Address2": "",
    "City": "Manchester",
    "State": "CT",
    "Zipcode": "06042"
  },
  {
    "Address1": "308 Woodleaf Court",
    "Address2": "",
    "City": "Glen Burnie",
    "State": "MD",
    "Zipcode": "21061"
  },
  {
    "Address1": "8502 Madrone Avenue",
    "Address2": "",
    "City": "Louisville",
    "State": "KY",
    "Zipcode": "40258"
  },
  {
    "Address1": "23 Sable Run Lane",
    "Address2": "",
    "City": "Methuen",
    "State": "MA",
    "Zipcode": "01844"
  },
  {
    "Address1": "716 Waller Road",
    "Address2": "",
    "City": "Brentwood",
    "State": "TN",
    "Zipcode": "37027"
  },
  {
    "Address1": "416 McIver Street",
    "Address2": "",
    "City": "Nashville",
    "State": "TN",
    "Zipcode": "37211"
  },
  {
    "Address1": "1508 Massachusetts Avenue Southeast",
    "Address2": "",
    "City": "Washington",
    "State": "DC",
    "Zipcode": "20003"
  },
  {
    "Address1": "5615 West Villa Maria Drive",
    "Address2": "",
    "City": "Glendale",
    "State": "AZ",
    "Zipcode": "85308"
  },
  {
    "Address1": "3162 Martin Luther King Junior Boulevard",
    "Address2": "#2",
    "City": "Fayetteville",
    "State": "AR",
    "Zipcode": "72704"
  },
  {
    "Address1": "5306 Ritchie Highway",
    "Address2": "",
    "City": "Baltimore",
    "State": "MD",
    "Zipcode": "21225"
  },
  {
    "Address1": "109 Summit Street",
    "Address2": "",
    "City": "Burlington",
    "State": "VT",
    "Zipcode": "05401"
  },
  {
    "Address1": "816 West 19th Avenue",
    "Address2": "",
    "City": "Anchorage",
    "State": "AK",
    "Zipcode": "99503"
  },
  {
    "Address1": "172 Alburg Springs Road",
    "Address2": "",
    "City": "Alburgh",
    "State": "VT",
    "Zipcode": "05440"
  },
  {
    "Address1": "159 Downey Drive",
    "Address2": "A",
    "City": "Manchester",
    "State": "CT",
    "Zipcode": "06040"
  },
  {
    "Address1": "125 John Street",
    "Address2": "",
    "City": "Santa Cruz",
    "State": "CA",
    "Zipcode": "95060"
  },
  {
    "Address1": "1101 Lotus Avenue",
    "Address2": "",
    "City": "Glen Burnie",
    "State": "MD",
    "Zipcode": "21061"
  },
  {
    "Address1": "8376 Albacore Drive",
    "Address2": "",
    "City": "Pasadena",
    "State": "MD",
    "Zipcode": "21122"
  },
  {
    "Address1": "491 Arabian Way",
    "Address2": "",
    "City": "Grand Junction",
    "State": "CO",
    "Zipcode": "81504"
  },
  {
    "Address1": "12245 West 71st Place",
    "Address2": "",
    "City": "Arvada",
    "State": "CO",
    "Zipcode": "80004"
  },
  {
    "Address1": "80 North East Street",
    "Address2": "#4",
    "City": "Holyoke",
    "State": "MA",
    "Zipcode": "01040"
  },
  {
    "Address1": "4695 East Huntsville Road",
    "Address2": "",
    "City": "Fayetteville",
    "State": "AR",
    "Zipcode": "72701"
  },
  {
    "Address1": "310 Timrod Road",
    "Address2": "",
    "City": "Manchester",
    "State": "CT",
    "Zipcode": "06040"
  },
  {
    "Address1": "1364 Capri Drive",
    "Address2": "",
    "City": "Panama City",
    "State": "FL",
    "Zipcode": "32405"
  },
  {
    "Address1": "132 Laurel Green Court",
    "Address2": "",
    "City": "Savannah",
    "State": "GA",
    "Zipcode": "31419"
  },
  {
    "Address1": "6657 West Rose Garden Lane",
    "Address2": "",
    "City": "Glendale",
    "State": "AZ",
    "Zipcode": "85308"
  },
  {
    "Address1": "519 West 75th Avenue",
    "Address2": "#APT 000003",
    "City": "Anchorage",
    "State": "AK",
    "Zipcode": "99518"
  },
  {
    "Address1": "31353 Santa Elena Way",
    "Address2": "",
    "City": "Union City",
    "State": "CA",
    "Zipcode": "94587"
  },
  {
    "Address1": "8398 West Denton Lane",
    "Address2": "",
    "City": "Glendale",
    "State": "AZ",
    "Zipcode": "85305"
  },
  {
    "Address1": "700 Winston Place",
    "Address2": "",
    "City": "Anchorage",
    "State": "AK",
    "Zipcode": "99504"
  },
  {
    "Address1": "232 Maine Avenue",
    "Address2": "",
    "City": "Panama City",
    "State": "FL",
    "Zipcode": "32401"
  },
  {
    "Address1": "1 Kempf Drive",
    "Address2": "",
    "City": "Easton",
    "State": "MA",
    "Zipcode": "02375"
  },
  {
    "Address1": "5811 Crossings Boulevard",
    "Address2": "",
    "City": "Nashville",
    "State": "TN",
    "Zipcode": "37013"
  },
  {
    "Address1": "5108 Franklin Street",
    "Address2": "",
    "City": "Savannah",
    "State": "GA",
    "Zipcode": "31405"
  },
  {
    "Address1": "913 Fallview Trail",
    "Address2": "",
    "City": "Nashville",
    "State": "TN",
    "Zipcode": "37211"
  },
  {
    "Address1": "270 Chrissy's Court",
    "Address2": "",
    "City": "Chester",
    "State": "VT",
    "Zipcode": "05443"
  },
  {
    "Address1": "130 Old Route 103",
    "Address2": "",
    "City": "Chester",
    "State": "VT",
    "Zipcode": "05143"
  },
  {
    "Address1": "10826 Pointe Royal Drive",
    "Address2": "",
    "City": "Bakersfield",
    "State": "CA",
    "Zipcode": "93311"
  },
  {
    "Address1": "74 Ranch Drive",
    "Address2": "",
    "City": "Montgomery",
    "State": "AL",
    "Zipcode": "36109"
  },
  {
    "Address1": "6601 West Ocotillo Road",
    "Address2": "",
    "City": "Glendale",
    "State": "AZ",
    "Zipcode": "85301"
  },
  {
    "Address1": "19416 Barclay Road",
    "Address2": "",
    "City": "Castro Valley",
    "State": "CA",
    "Zipcode": "94546"
  },
  {
    "Address1": "1347 Blackwalnut Court",
    "Address2": "",
    "City": "Annapolis",
    "State": "MD",
    "Zipcode": "21403"
  },
  {
    "Address1": "1770 Colony Way",
    "Address2": "",
    "City": "Fayetteville",
    "State": "AR",
    "Zipcode": "72704"
  },
  {
    "Address1": "165 Saint John Street",
    "Address2": "",
    "City": "Manchester",
    "State": "CT",
    "Zipcode": "06040"
  },
  {
    "Address1": "2409 Research Boulevard",
    "Address2": "",
    "City": "Fort Collins",
    "State": "CO",
    "Zipcode": "80526"
  },
  {
    "Address1": "1903 Bashford Manor Lane",
    "Address2": "",
    "City": "Louisville",
    "State": "KY",
    "Zipcode": "40218"
  },
  {
    "Address1": "8315 Surf Drive",
    "Address2": "",
    "City": "Panama City Beach",
    "State": "FL",
    "Zipcode": "32408"
  },
  {
    "Address1": "3301 Old Muldoon Road",
    "Address2": "",
    "City": "Anchorage",
    "State": "AK",
    "Zipcode": "99504"
  },
  {
    "Address1": "8800 Cordell Circle",
    "Address2": "#APT 000003",
    "City": "Anchorage",
    "State": "AK",
    "Zipcode": "99502"
  },
  {
    "Address1": "117 East Cook Avenue",
    "Address2": "",
    "City": "Anchorage",
    "State": "AK",
    "Zipcode": "99501"
  },
  {
    "Address1": "6231 North 67th Avenue",
    "Address2": "#241",
    "City": "Glendale",
    "State": "AZ",
    "Zipcode": "85301"
  },
  {
    "Address1": "8505 Waters Avenue",
    "Address2": "#66",
    "City": "Savannah",
    "State": "GA",
    "Zipcode": "31406"
  },
  {
    "Address1": "7 Underwood Place Northwest",
    "Address2": "",
    "City": "Washington",
    "State": "DC",
    "Zipcode": "20012"
  },
  {
    "Address1": "21950 Arnold Center Road",
    "Address2": "",
    "City": "Carson",
    "State": "CA",
    "Zipcode": "90810"
  },
  {
    "Address1": "1427 South Carolina Avenue Southeast",
    "Address2": "",
    "City": "Washington",
    "State": "DC",
    "Zipcode": "20003"
  },
  {
    "Address1": "1420 Turtleback Trail",
    "Address2": "",
    "City": "Panama City",
    "State": "FL",
    "Zipcode": "32413"
  },
  {
    "Address1": "6990 Pierson Street",
    "Address2": "",
    "City": "Arvada",
    "State": "CO",
    "Zipcode": "80004"
  },
  {
    "Address1": "376 North Williams Drive",
    "Address2": "",
    "City": "Fayetteville",
    "State": "AR",
    "Zipcode": "72701"
  },
  {
    "Address1": "3617 Menlo Court",
    "Address2": "",
    "City": "Montgomery",
    "State": "AL",
    "Zipcode": "36116"
  },
  {
    "Address1": "711 Parker Street",
    "Address2": "",
    "City": "East Longmeadow",
    "State": "MA",
    "Zipcode": "01028"
  },
  {
    "Address1": "8521 Crystal Street",
    "Address2": "",
    "City": "Anchorage",
    "State": "AK",
    "Zipcode": "99502"
  },
  {
    "Address1": "1622 Edgar D Nixon Avenue",
    "Address2": "",
    "City": "Montgomery",
    "State": "AL",
    "Zipcode": "36104"
  },
  {
    "Address1": "1608 Gales Street Northeast",
    "Address2": "",
    "City": "Washington",
    "State": "DC",
    "Zipcode": "20002"
  },
  {
    "Address1": "122 East Hayes Street",
    "Address2": "",
    "City": "Norman",
    "State": "OK",
    "Zipcode": "73069"
  },
  {
    "Address1": "5144 Cattail Court",
    "Address2": "",
    "City": "Fayetteville",
    "State": "AR",
    "Zipcode": "72701"
  },
  {
    "Address1": "131 Kent Drive",
    "Address2": "",
    "City": "Manchester",
    "State": "CT",
    "Zipcode": "06042"
  },
  {
    "Address1": "2313 Vegas Avenue",
    "Address2": "",
    "City": "Castro Valley",
    "State": "CA",
    "Zipcode": "94546"
  },
  {
    "Address1": "5420 Sunset Avenue",
    "Address2": "",
    "City": "Panama City Beach",
    "State": "FL",
    "Zipcode": "32408"
  },
  {
    "Address1": "242 North Ash Street",
    "Address2": "",
    "City": "Fruita",
    "State": "CO",
    "Zipcode": "81521"
  },
  {
    "Address1": "38676 Greenwich Circle",
    "Address2": "",
    "City": "Fremont",
    "State": "CA",
    "Zipcode": "94536"
  },
  {
    "Address1": "2426 East Onyx Trail",
    "Address2": "#6",
    "City": "Fayetteville",
    "State": "AR",
    "Zipcode": "72701"
  },
  {
    "Address1": "110 Seaton Place Northwest",
    "Address2": "",
    "City": "Washington",
    "State": "DC",
    "Zipcode": "20001"
  },
  {
    "Address1": "5385 Iris Street",
    "Address2": "",
    "City": "Arvada",
    "State": "CO",
    "Zipcode": "80002"
  },
  {
    "Address1": "5628 West Tonopah Drive",
    "Address2": "",
    "City": "Glendale",
    "State": "AZ",
    "Zipcode": "85308"
  },
  {
    "Address1": "65 Bay Drive",
    "Address2": "",
    "City": "Annapolis",
    "State": "MD",
    "Zipcode": "21403"
  },
  {
    "Address1": "7401 North 61st Drive",
    "Address2": "",
    "City": "Glendale",
    "State": "AZ",
    "Zipcode": "85301"
  },
  {
    "Address1": "8 Watkins Road",
    "Address2": "",
    "City": "Middlebury",
    "State": "VT",
    "Zipcode": "05468"
  },
  {
    "Address1": "2209 June Drive",
    "Address2": "",
    "City": "Nashville",
    "State": "TN",
    "Zipcode": "37214"
  },
  {
    "Address1": "1840 Nobel Place",
    "Address2": "",
    "City": "Louisville",
    "State": "KY",
    "Zipcode": "40216"
  },
  {
    "Address1": "2622 Martin Luther King Junior Boulevard",
    "Address2": "",
    "City": "Fayetteville",
    "State": "AR",
    "Zipcode": "72704"
  },
  {
    "Address1": "4 Glen Circle",
    "Address2": "",
    "City": "Glen Burnie",
    "State": "MD",
    "Zipcode": "21060"
  },
  {
    "Address1": "7529 West 72nd Avenue",
    "Address2": "#4",
    "City": "Arvada",
    "State": "CO",
    "Zipcode": "80003"
  },
  {
    "Address1": "10996 Largo Drive",
    "Address2": "",
    "City": "Savannah",
    "State": "GA",
    "Zipcode": "31419"
  },
  {
    "Address1": "2027 North Shannon Drive",
    "Address2": "#5",
    "City": "Fayetteville",
    "State": "AR",
    "Zipcode": "72703"
  },
  {
    "Address1": "154 Boca Lagoon Drive",
    "Address2": "",
    "City": "Panama City Beach",
    "State": "FL",
    "Zipcode": "32408"
  },
  {
    "Address1": "3311 Wiley Post Loop",
    "Address2": "",
    "City": "Anchorage",
    "State": "AK",
    "Zipcode": "99517"
  },
  {
    "Address1": "5055 West 58th Avenue",
    "Address2": "",
    "City": "Arvada",
    "State": "CO",
    "Zipcode": "80002"
  },
  {
    "Address1": "3228 Chettenham Drive",
    "Address2": "",
    "City": "Rancho Cordova",
    "State": "CA",
    "Zipcode": "95670"
  },
  {
    "Address1": "1901 North Midwest Boulevard",
    "Address2": "",
    "City": "Edmond",
    "State": "OK",
    "Zipcode": "73034"
  },
  {
    "Address1": "1536 North Main Street",
    "Address2": "",
    "City": "Salinas",
    "State": "CA",
    "Zipcode": "93906"
  },
  {
    "Address1": "33 Linscott Road",
    "Address2": "",
    "City": "Hingham",
    "State": "MA",
    "Zipcode": "02043"
  },
  {
    "Address1": "1732 27th Avenue",
    "Address2": "",
    "City": "Oakland",
    "State": "CA",
    "Zipcode": "94601"
  },
  {
    "Address1": "22 Gallatin Street Northeast",
    "Address2": "",
    "City": "Washington",
    "State": "DC",
    "Zipcode": "20011"
  },
  {
    "Address1": "8125 Glynnwood Drive",
    "Address2": "",
    "City": "Montgomery",
    "State": "AL",
    "Zipcode": "36117"
  },
  {
    "Address1": "2139 Glynnwood Drive",
    "Address2": "",
    "City": "Savannah",
    "State": "GA",
    "Zipcode": "31404"
  },
  {
    "Address1": "14 School Street",
    "Address2": "",
    "City": "Medway",
    "State": "MA",
    "Zipcode": "02053"
  },
  {
    "Address1": "264 Crest Drive",
    "Address2": "",
    "City": "Soldotna",
    "State": "AK",
    "Zipcode": "99669"
  },
  {
    "Address1": "307 Joel Street",
    "Address2": "",
    "City": "Pooler",
    "State": "GA",
    "Zipcode": "31322"
  },
  {
    "Address1": "188 River Road",
    "Address2": "",
    "City": "Essex",
    "State": "VT",
    "Zipcode": "05452"
  },
  {
    "Address1": "1643 Oxford Street",
    "Address2": "R C",
    "City": "Berkeley",
    "State": "CA",
    "Zipcode": "94709"
  },
  {
    "Address1": "5545 Saddlewood Lane",
    "Address2": "",
    "City": "Brentwood",
    "State": "TN",
    "Zipcode": "37027"
  },
  {
    "Address1": "26466 Mockingbird Lane",
    "Address2": "",
    "City": "Hayward",
    "State": "CA",
    "Zipcode": "94544"
  },
  {
    "Address1": "4840 Reservoir Road Northwest",
    "Address2": "",
    "City": "Washington",
    "State": "DC",
    "Zipcode": "20007"
  },
  {
    "Address1": "599 Cambridge Street",
    "Address2": "#303",
    "City": "Cambridge",
    "State": "MA",
    "Zipcode": "02141"
  },
  {
    "Address1": "584 Rural Hill Road",
    "Address2": "",
    "City": "Nashville",
    "State": "TN",
    "Zipcode": "37217"
  },
  {
    "Address1": "10262 West 59th Avenue",
    "Address2": "#1",
    "City": "Arvada",
    "State": "CO",
    "Zipcode": "80004"
  },
  {
    "Address1": "945 South 5th Street",
    "Address2": "#1020",
    "City": "Louisville",
    "State": "KY",
    "Zipcode": "40203"
  },
  {
    "Address1": "2543 The Meadows",
    "Address2": "",
    "City": "Montgomery",
    "State": "AL",
    "Zipcode": "36116"
  },
  {
    "Address1": "153 Atlantic Avenue",
    "Address2": "#6",
    "City": "Salisbury",
    "State": "MA",
    "Zipcode": "01952"
  },
  {
    "Address1": "9 Brooklyn Street",
    "Address2": "",
    "City": "Burlington",
    "State": "VT",
    "Zipcode": "05488"
  },
  {
    "Address1": "5722 8th Street Northwest",
    "Address2": "",
    "City": "Washington",
    "State": "DC",
    "Zipcode": "20011"
  },
  {
    "Address1": "8700 Seaton Boulevard",
    "Address2": "",
    "City": "Montgomery",
    "State": "AL",
    "Zipcode": "36116"
  },
  {
    "Address1": "1004 Bellflower Street",
    "Address2": "",
    "City": "Livermore",
    "State": "CA",
    "Zipcode": "94551"
  },
  {
    "Address1": "4738 Mallard Common",
    "Address2": "",
    "City": "Fremont",
    "State": "CA",
    "Zipcode": "94555"
  },
  {
    "Address1": "875 Latouche Street",
    "Address2": "#APT 001010",
    "City": "Anchorage",
    "State": "AK",
    "Zipcode": "99501"
  },
  {
    "Address1": "4940 Fuller Road",
    "Address2": "",
    "City": "Montgomery",
    "State": "AL",
    "Zipcode": "36110"
  },
  {
    "Address1": "5754 Belleau Drive",
    "Address2": "",
    "City": "Montgomery",
    "State": "AL",
    "Zipcode": "36117"
  },
  {
    "Address1": "1403 Lincoln Street",
    "Address2": "",
    "City": "Savannah",
    "State": "GA",
    "Zipcode": "31401"
  },
  {
    "Address1": "140 South Hill Avenue",
    "Address2": "#305",
    "City": "Fayetteville",
    "State": "AR",
    "Zipcode": "72701"
  },
  {
    "Address1": "642 South 2nd Street",
    "Address2": "#608",
    "City": "Louisville",
    "State": "KY",
    "Zipcode": "40202"
  },
  {
    "Address1": "6473 Zephyr Street",
    "Address2": "",
    "City": "Arvada",
    "State": "CO",
    "Zipcode": "80004"
  },
  {
    "Address1": "4250 North Valley Lake Drive",
    "Address2": "#8",
    "City": "Fayetteville",
    "State": "AR",
    "Zipcode": "72703"
  },
  {
    "Address1": "565 North Lakeshore Drive",
    "Address2": "",
    "City": "Panama City Beach",
    "State": "FL",
    "Zipcode": "32413"
  },
  {
    "Address1": "5514 West Wedington Drive",
    "Address2": "#3",
    "City": "Fayetteville",
    "State": "AR",
    "Zipcode": "72704"
  },
  {
    "Address1": "1909 Wainwright Avenue",
    "Address2": "",
    "City": "Panama City",
    "State": "FL",
    "Zipcode": "32405"
  },
  {
    "Address1": "4525 West Frier Drive",
    "Address2": "",
    "City": "Glendale",
    "State": "AZ",
    "Zipcode": "85301"
  },
  {
    "Address1": "201 West Montgomery Cross Road",
    "Address2": "#170",
    "City": "Savannah",
    "State": "GA",
    "Zipcode": "31406"
  },
  {
    "Address1": "915 Heath Drive",
    "Address2": "",
    "City": "Montgomery",
    "State": "AL",
    "Zipcode": "36108"
  },
  {
    "Address1": "95 Briarwood Drive",
    "Address2": "",
    "City": "Manchester",
    "State": "CT",
    "Zipcode": "06040"
  },
  {
    "Address1": "69 Washington Street",
    "Address2": "",
    "City": "Manchester",
    "State": "CT",
    "Zipcode": "06042"
  },
  {
    "Address1": "2900 North Western Avenue",
    "Address2": "",
    "City": "Edmond",
    "State": "OK",
    "Zipcode": "73012"
  },
  {
    "Address1": "7841 West Kristal Way",
    "Address2": "",
    "City": "Glendale",
    "State": "AZ",
    "Zipcode": "85308"
  },
  {
    "Address1": "361 Parmley Lane",
    "Address2": "",
    "City": "Nashville",
    "State": "TN",
    "Zipcode": "37207"
  },
  {
    "Address1": "6120 Southeast 84th Street",
    "Address2": "",
    "City": "Oklahoma City",
    "State": "OK",
    "Zipcode": "73135"
  },
  {
    "Address1": "9428 North 65th Drive",
    "Address2": "",
    "City": "Glendale",
    "State": "AZ",
    "Zipcode": "85302"
  },
  {
    "Address1": "11 Meeting Place Circle",
    "Address2": "",
    "City": "Boxford",
    "State": "MA",
    "Zipcode": "01921"
  },
  {
    "Address1": "4438 Maine Avenue",
    "Address2": "",
    "City": "Baldwin Park",
    "State": "CA",
    "Zipcode": "91706"
  },
  {
    "Address1": "65 Jones Lane",
    "Address2": "",
    "City": "Montevallo",
    "State": "AL",
    "Zipcode": "35115"
  },
  {
    "Address1": "3140 Commander Drive",
    "Address2": "",
    "City": "Louisville",
    "State": "KY",
    "Zipcode": "40220"
  },
  {
    "Address1": "107 Guaymas Place",
    "Address2": "",
    "City": "Davis",
    "State": "CA",
    "Zipcode": "95616"
  },
  {
    "Address1": "6114 West Glenn Drive",
    "Address2": "#1",
    "City": "Glendale",
    "State": "AZ",
    "Zipcode": "85301"
  },
  {
    "Address1": "622 Thomas Street",
    "Address2": "",
    "City": "Woodland",
    "State": "CA",
    "Zipcode": "95776"
  },
  {
    "Address1": "127 Grand Heron Drive",
    "Address2": "",
    "City": "Panama City",
    "State": "FL",
    "Zipcode": "32407"
  },
  {
    "Address1": "3504 East 16th Avenue",
    "Address2": "",
    "City": "Anchorage",
    "State": "AK",
    "Zipcode": "99508"
  },
  {
    "Address1": "1230 Stafford Drive",
    "Address2": "",
    "City": "Montgomery",
    "State": "AL",
    "Zipcode": "36117"
  },
  {
    "Address1": "6007 Yarrow Street",
    "Address2": "H",
    "City": "Arvada",
    "State": "CO",
    "Zipcode": "80004"
  },
  {
    "Address1": "632 Belmar Drive",
    "Address2": "",
    "City": "Edmond",
    "State": "OK",
    "Zipcode": "73025"
  },
  {
    "Address1": "1515 Chandlee Avenue",
    "Address2": "",
    "City": "Panama City",
    "State": "FL",
    "Zipcode": "32405"
  },
  {
    "Address1": "10632 Admiral Court",
    "Address2": "",
    "City": "Oklahoma City",
    "State": "OK",
    "Zipcode": "73162"
  },
  {
    "Address1": "11655 West 81st Avenue",
    "Address2": "",
    "City": "Arvada",
    "State": "CO",
    "Zipcode": "80005"
  },
  {
    "Address1": "3500 Blanchard Drive Southwest",
    "Address2": "",
    "City": "Washington",
    "State": "DC",
    "Zipcode": "20032"
  },
  {
    "Address1": "2755 Country Drive",
    "Address2": "#244",
    "City": "Fremont",
    "State": "CA",
    "Zipcode": "94536"
  },
  {
    "Address1": "1850 Berryhill Place",
    "Address2": "",
    "City": "Montgomery",
    "State": "AL",
    "Zipcode": "36117"
  },
  {
    "Address1": "58 North U.S.A Drive",
    "Address2": "",
    "City": "Fayetteville",
    "State": "AR",
    "Zipcode": "72701"
  },
  {
    "Address1": "8785 Ellis Court",
    "Address2": "",
    "City": "Arvada",
    "State": "CO",
    "Zipcode": "80005"
  },
  {
    "Address1": "1636 Briarview Court",
    "Address2": "",
    "City": "Severn",
    "State": "MD",
    "Zipcode": "21144"
  },
  {
    "Address1": "12 Knox Street",
    "Address2": "",
    "City": "Manchester",
    "State": "CT",
    "Zipcode": "06040"
  },
  {
    "Address1": "425 Middle Turnpike East",
    "Address2": "",
    "City": "Manchester",
    "State": "CT",
    "Zipcode": "06040"
  },
  {
    "Address1": "2017 North Hartford Drive",
    "Address2": "",
    "City": "Fayetteville",
    "State": "AR",
    "Zipcode": "72701"
  },
  {
    "Address1": "5900 Upland Road",
    "Address2": "",
    "City": "Brooklyn Park",
    "State": "MD",
    "Zipcode": "21225"
  },
  {
    "Address1": "9331 Edison Road",
    "Address2": "",
    "City": "Lithia",
    "State": "FL",
    "Zipcode": "33547"
  },
  {
    "Address1": "1810 Orchard Place",
    "Address2": "",
    "City": "Anchorage",
    "State": "AK",
    "Zipcode": "99502"
  },
  {
    "Address1": "145 Grau Drive",
    "Address2": "",
    "City": "Fremont",
    "State": "CA",
    "Zipcode": "94536"
  },
  {
    "Address1": "3959 Fairlands Drive",
    "Address2": "",
    "City": "Pleasanton",
    "State": "CA",
    "Zipcode": "94588"
  },
  {
    "Address1": "3613 East 18th Avenue",
    "Address2": "",
    "City": "Anchorage",
    "State": "AK",
    "Zipcode": "99508"
  },
  {
    "Address1": "1275 South Holland Drive",
    "Address2": "",
    "City": "Fayetteville",
    "State": "AR",
    "Zipcode": "72704"
  },
  {
    "Address1": "109 Cambridge Station Road",
    "Address2": "",
    "City": "Louisville",
    "State": "KY",
    "Zipcode": "40223"
  },
  {
    "Address1": "2107 Elfen Glen",
    "Address2": "Apt B",
    "City": "Van Buren",
    "State": "AR",
    "Zipcode": "72956"
  },
  {
    "Address1": "8522 Ingalls Circle",
    "Address2": "",
    "City": "Arvada",
    "State": "CO",
    "Zipcode": "80003"
  },
  {
    "Address1": "1809 Cedar Drive",
    "Address2": "",
    "City": "Severn",
    "State": "MD",
    "Zipcode": "21144"
  },
  {
    "Address1": "1376 Oakland Avenue",
    "Address2": "#1",
    "City": "Fayetteville",
    "State": "AR",
    "Zipcode": "72703"
  },
  {
    "Address1": "4306 Bylsma Circle",
    "Address2": "",
    "City": "Panama City",
    "State": "FL",
    "Zipcode": "32404"
  },
  {
    "Address1": "233 Buckland Hills Drive",
    "Address2": "",
    "City": "Manchester",
    "State": "CT",
    "Zipcode": "06042"
  },
  {
    "Address1": "7701 Southwest 104th Street",
    "Address2": "",
    "City": "Oklahoma City",
    "State": "OK",
    "Zipcode": "73169"
  },
  {
    "Address1": "14003 Crossbranch Court",
    "Address2": "",
    "City": "Louisville",
    "State": "KY",
    "Zipcode": "40245"
  },
  {
    "Address1": "19590 East Batavia Drive",
    "Address2": "",
    "City": "Aurora",
    "State": "CO",
    "Zipcode": "80011"
  },
  {
    "Address1": "6424 Simms Street",
    "Address2": "#71",
    "City": "Arvada",
    "State": "CO",
    "Zipcode": "80004"
  },
  {
    "Address1": "718 Dutchmans Court",
    "Address2": "",
    "City": "Nashville",
    "State": "TN",
    "Zipcode": "37076"
  },
  {
    "Address1": "8496 Isles Court",
    "Address2": "",
    "City": "Pasadena",
    "State": "MD",
    "Zipcode": "21122"
  },
  {
    "Address1": "100 East Joyce Boulevard",
    "Address2": "#110",
    "City": "Fayetteville",
    "State": "AR",
    "Zipcode": "72703"
  },
  {
    "Address1": "9036 Calico Court",
    "Address2": "",
    "City": "Hesperia",
    "State": "CA",
    "Zipcode": "92344"
  },
  {
    "Address1": "2723 East Joyce Boulevard",
    "Address2": "",
    "City": "Fayetteville",
    "State": "AR",
    "Zipcode": "72703"
  },
  {
    "Address1": "90 Via Verde",
    "Address2": "",
    "City": "San Lorenzo",
    "State": "CA",
    "Zipcode": "94580"
  },
  {
    "Address1": "1015 Castle Road",
    "Address2": "",
    "City": "Edmond",
    "State": "OK",
    "Zipcode": "73034"
  },
  {
    "Address1": "2787 West Blackstone Crossing",
    "Address2": "",
    "City": "Fayetteville",
    "State": "AR",
    "Zipcode": "72704"
  },
  {
    "Address1": "3555 Alamosa Drive",
    "Address2": "",
    "City": "Anchorage",
    "State": "AK",
    "Zipcode": "99502"
  },
  {
    "Address1": "6231 North 59th Avenue",
    "Address2": "#35",
    "City": "Glendale",
    "State": "AZ",
    "Zipcode": "85301"
  },
  {
    "Address1": "311 South Panama Street",
    "Address2": "",
    "City": "Montgomery",
    "State": "AL",
    "Zipcode": "36107"
  },
  {
    "Address1": "3313 Daisy Trail",
    "Address2": "",
    "City": "Nashville",
    "State": "TN",
    "Zipcode": "37013"
  },
  {
    "Address1": "5436 Dorbrandt Street",
    "Address2": "#APT 000002",
    "City": "Anchorage",
    "State": "AK",
    "Zipcode": "99518"
  },
  {
    "Address1": "553 South Arlington Road",
    "Address2": "",
    "City": "Orange",
    "State": "CA",
    "Zipcode": "92869"
  },
  {
    "Address1": "615 Q Street Northwest",
    "Address2": "",
    "City": "Washington",
    "State": "DC",
    "Zipcode": "20001"
  },
  {
    "Address1": "457 Mountain Village Boulevard",
    "Address2": "#320-3",
    "City": "Mountain Village",
    "State": "CO",
    "Zipcode": "81435"
  },
  {
    "Address1": "144 Lauderdale Street",
    "Address2": "",
    "City": "Montgomery",
    "State": "AL",
    "Zipcode": "36116"
  },
  {
    "Address1": "2 Ambelwood Way",
    "Address2": "",
    "City": "Savannah",
    "State": "GA",
    "Zipcode": "31411"
  },
  {
    "Address1": "4113 Holiday Drive",
    "Address2": "",
    "City": "Panama City",
    "State": "FL",
    "Zipcode": "32408"
  },
  {
    "Address1": "2001 Van Hoose Drive",
    "Address2": "",
    "City": "Fayetteville",
    "State": "AR",
    "Zipcode": "72701"
  },
  {
    "Address1": "9457 Winfield Place",
    "Address2": "",
    "City": "Montgomery",
    "State": "AL",
    "Zipcode": "36117"
  },
  {
    "Address1": "1120 Mitchell Young Road",
    "Address2": "",
    "City": "Montgomery",
    "State": "AL",
    "Zipcode": "36108"
  },
  {
    "Address1": "12816 West 65th Way",
    "Address2": "",
    "City": "Arvada",
    "State": "CO",
    "Zipcode": "80004"
  },
  {
    "Address1": "10 Erick Road",
    "Address2": "#47",
    "City": "Mansfield",
    "State": "MA",
    "Zipcode": "02048"
  },
  {
    "Address1": "481 East Redbud Lane",
    "Address2": "",
    "City": "Fayetteville",
    "State": "AR",
    "Zipcode": "72703"
  },
  {
    "Address1": "320 Northwest 22nd Street",
    "Address2": "",
    "City": "Oklahoma City",
    "State": "OK",
    "Zipcode": "73103"
  },
  {
    "Address1": "33 South Hill Avenue",
    "Address2": "#306",
    "City": "Fayetteville",
    "State": "AR",
    "Zipcode": "72701"
  },
  {
    "Address1": "355 Gillette Road",
    "Address2": "",
    "City": "Nashville",
    "State": "TN",
    "Zipcode": "37211"
  },
  {
    "Address1": "151 Main Street",
    "Address2": "",
    "City": "Savannah",
    "State": "GA",
    "Zipcode": "31408"
  },
  {
    "Address1": "545 Tracey Drive",
    "Address2": "",
    "City": "Panama City",
    "State": "FL",
    "Zipcode": "32404"
  },
  {
    "Address1": "3 Southerberry Drive",
    "Address2": "",
    "City": "Chester",
    "State": "VT",
    "Zipcode": "05468"
  },
  {
    "Address1": "736 Sicard Street Southeast",
    "Address2": "",
    "City": "Washington",
    "State": "DC",
    "Zipcode": "20003"
  },
  {
    "Address1": "6214 Herzog Street",
    "Address2": "",
    "City": "Oakland",
    "State": "CA",
    "Zipcode": "94608"
  },
  {
    "Address1": "1160 North College Avenue",
    "Address2": "#2",
    "City": "Fayetteville",
    "State": "AR",
    "Zipcode": "72703"
  },
  {
    "Address1": "5843 West McLellan Road",
    "Address2": "",
    "City": "Glendale",
    "State": "AZ",
    "Zipcode": "85301"
  },
  {
    "Address1": "1452 55th Avenue",
    "Address2": "B",
    "City": "Oakland",
    "State": "CA",
    "Zipcode": "94621"
  },
  {
    "Address1": "4255 Tanager Common",
    "Address2": "",
    "City": "Fremont",
    "State": "CA",
    "Zipcode": "94555"
  },
  {
    "Address1": "13426 West Rovey Avenue",
    "Address2": "",
    "City": "Litchfield Park",
    "State": "AZ",
    "Zipcode": "85340"
  },
  {
    "Address1": "195 Nursery Street",
    "Address2": "#D10",
    "City": "Springfield",
    "State": "MA",
    "Zipcode": "01104"
  },
  {
    "Address1": "126 Marjorie Lane",
    "Address2": "C",
    "City": "Manchester",
    "State": "CT",
    "Zipcode": "06042"
  },
  {
    "Address1": "22 Charnock Street",
    "Address2": "#2",
    "City": "Beverly",
    "State": "MA",
    "Zipcode": "01915"
  },
  {
    "Address1": "817 25th Street Northwest",
    "Address2": "",
    "City": "Washington",
    "State": "DC",
    "Zipcode": "20037"
  },
  {
    "Address1": "2552 Massachusetts Avenue Northwest",
    "Address2": "",
    "City": "Washington",
    "State": "DC",
    "Zipcode": "20008"
  },
  {
    "Address1": "1711 Lore Road",
    "Address2": "#APT 000106",
    "City": "Anchorage",
    "State": "AK",
    "Zipcode": "99507"
  },
  {
    "Address1": "19091 Northeast 23rd Street",
    "Address2": "",
    "City": "Harrah",
    "State": "OK",
    "Zipcode": "73045"
  },
  {
    "Address1": "8318 North 57th Drive",
    "Address2": "",
    "City": "Glendale",
    "State": "AZ",
    "Zipcode": "85302"
  },
  {
    "Address1": "7256 West 84th Way",
    "Address2": "#918",
    "City": "Arvada",
    "State": "CO",
    "Zipcode": "80003"
  },
  {
    "Address1": "706 Seagrove Road",
    "Address2": "",
    "City": "Glen Burnie",
    "State": "MD",
    "Zipcode": "21060"
  },
  {
    "Address1": "2318 Camryns Crossing",
    "Address2": "",
    "City": "Panama City",
    "State": "FL",
    "Zipcode": "32405"
  },
  {
    "Address1": "968 Virginia Avenue",
    "Address2": "",
    "City": "Olivehurst",
    "State": "CA",
    "Zipcode": "95961"
  },
  {
    "Address1": "416 South University Boulevard",
    "Address2": "",
    "City": "Norman",
    "State": "OK",
    "Zipcode": "73069"
  },
  {
    "Address1": "137 Gazebo East Drive",
    "Address2": "",
    "City": "Montgomery",
    "State": "AL",
    "Zipcode": "36117"
  },
  {
    "Address1": "10723 Colonial Woods Court",
    "Address2": "",
    "City": "Louisville",
    "State": "KY",
    "Zipcode": "40223"
  },
  {
    "Address1": "119 Matthew Lane",
    "Address2": "",
    "City": "Nashville",
    "State": "TN",
    "Zipcode": "37215"
  },
  {
    "Address1": "3142 West Finger Road",
    "Address2": "",
    "City": "Fayetteville",
    "State": "AR",
    "Zipcode": "72701"
  },
  {
    "Address1": "4 Elm Street",
    "Address2": "",
    "City": "Windsor",
    "State": "VT",
    "Zipcode": "05089"
  },
  {
    "Address1": "78 School Street",
    "Address2": "",
    "City": "Woburn",
    "State": "MA",
    "Zipcode": "01801"
  },
  {
    "Address1": "19020 North 68th Avenue",
    "Address2": "",
    "City": "Glendale",
    "State": "AZ",
    "Zipcode": "85308"
  },
  {
    "Address1": "2849 Quail Drive",
    "Address2": "",
    "City": "Fayetteville",
    "State": "AR",
    "Zipcode": "72704"
  },
  {
    "Address1": "2456 22nd Avenue",
    "Address2": "",
    "City": "Greeley",
    "State": "CO",
    "Zipcode": "80631"
  },
  {
    "Address1": "200 Boulder Road",
    "Address2": "",
    "City": "Manchester",
    "State": "CT",
    "Zipcode": "06040"
  },
  {
    "Address1": "11150 Sun Valley Drive",
    "Address2": "",
    "City": "Oakland",
    "State": "CA",
    "Zipcode": "94605"
  },
  {
    "Address1": "505 Southeast 32nd Street",
    "Address2": "",
    "City": "Oklahoma City",
    "State": "OK",
    "Zipcode": "73129"
  },
  {
    "Address1": "1025 West 19th Street",
    "Address2": "#UNIT 1-C",
    "City": "Panama City",
    "State": "FL",
    "Zipcode": "32405"
  },
  {
    "Address1": "6725 Pamela Court",
    "Address2": "",
    "City": "Montgomery",
    "State": "AL",
    "Zipcode": "36116"
  },
  {
    "Address1": "4714 Narrow Lane Road",
    "Address2": "",
    "City": "Montgomery",
    "State": "AL",
    "Zipcode": "36116"
  },
  {
    "Address1": "11 Proctor Circle",
    "Address2": "",
    "City": "Peabody",
    "State": "MA",
    "Zipcode": "01960"
  },
  {
    "Address1": "10508 Kovats Court",
    "Address2": "",
    "City": "Louisville",
    "State": "KY",
    "Zipcode": "40223"
  },
  {
    "Address1": "3179 18th Street Northwest",
    "Address2": "",
    "City": "Washington",
    "State": "DC",
    "Zipcode": "20010"
  },
  {
    "Address1": "3194 Bladensburg Road Northeast",
    "Address2": "",
    "City": "Washington",
    "State": "DC",
    "Zipcode": "20018"
  },
  {
    "Address1": "260 Rio Del Mar Boulevard",
    "Address2": "##14",
    "City": "Aptos",
    "State": "CA",
    "Zipcode": "95003"
  },
  {
    "Address1": "1040 West 27th Avenue",
    "Address2": "#APT 000401",
    "City": "Anchorage",
    "State": "AK",
    "Zipcode": "99503"
  },
  {
    "Address1": "42 Lake Lane",
    "Address2": "",
    "City": "Westmore",
    "State": "VT",
    "Zipcode": "05860"
  },
  {
    "Address1": "3718 Bay Tree Road",
    "Address2": "",
    "City": "Lynn Haven",
    "State": "FL",
    "Zipcode": "32444"
  },
  {
    "Address1": "3408 Bellisima Place",
    "Address2": "#204",
    "City": "Louisville",
    "State": "KY",
    "Zipcode": "40245"
  },
  {
    "Address1": "4109 General Bate Drive",
    "Address2": "",
    "City": "Nashville",
    "State": "TN",
    "Zipcode": "37204"
  },
  {
    "Address1": "5329 A Street",
    "Address2": "",
    "City": "Greeley",
    "State": "CO",
    "Zipcode": "80634"
  },
  {
    "Address1": "88 Shute Street",
    "Address2": "#1",
    "City": "Everett",
    "State": "MA",
    "Zipcode": "02149"
  },
  {
    "Address1": "480 Keene Road",
    "Address2": "",
    "City": "Walden",
    "State": "VT",
    "Zipcode": "05836"
  },
  {
    "Address1": "4 Cutting Avenue",
    "Address2": "",
    "City": "Worcester",
    "State": "MA",
    "Zipcode": "01606"
  },
  {
    "Address1": "275 South 40th Street",
    "Address2": "",
    "City": "Boulder",
    "State": "CO",
    "Zipcode": "80305"
  },
  {
    "Address1": "1189 Northwest End Avenue",
    "Address2": "#D3",
    "City": "Fayetteville",
    "State": "AR",
    "Zipcode": "72703"
  },
  {
    "Address1": "25 Cliffside Drive",
    "Address2": "D",
    "City": "Manchester",
    "State": "CT",
    "Zipcode": "06042"
  },
  {
    "Address1": "2515 60th Avenue",
    "Address2": "",
    "City": "Oakland",
    "State": "CA",
    "Zipcode": "94605"
  },
  {
    "Address1": "2057 Lucas Street",
    "Address2": "",
    "City": "Montgomery",
    "State": "AL",
    "Zipcode": "36107"
  },
  {
    "Address1": "386 Daniels Road",
    "Address2": "",
    "City": "New Haven",
    "State": "VT",
    "Zipcode": "05472"
  },
  {
    "Address1": "9805 Meadow Vale Drive",
    "Address2": "",
    "City": "Louisville",
    "State": "KY",
    "Zipcode": "40242"
  },
  {
    "Address1": "8 Village Circle",
    "Address2": "",
    "City": "Randolph",
    "State": "VT",
    "Zipcode": "05060"
  },
  {
    "Address1": "1011 San Jose Street",
    "Address2": "",
    "City": "San Leandro",
    "State": "CA",
    "Zipcode": "94577"
  },
  {
    "Address1": "2505 Walker Lane",
    "Address2": "",
    "City": "Nashville",
    "State": "TN",
    "Zipcode": "37207"
  },
  {
    "Address1": "11225 West 79th Drive",
    "Address2": "",
    "City": "Arvada",
    "State": "CO",
    "Zipcode": "80005"
  },
  {
    "Address1": "1907 18th Avenue South",
    "Address2": "",
    "City": "Nashville",
    "State": "TN",
    "Zipcode": "37212"
  },
  {
    "Address1": "16 Conway Street",
    "Address2": "",
    "City": "Shelburne Falls",
    "State": "MA",
    "Zipcode": "01370"
  },
  {
    "Address1": "20375 Wisteria Street",
    "Address2": "",
    "City": "Castro Valley",
    "State": "CA",
    "Zipcode": "94546"
  },
  {
    "Address1": "6408 Fern Crest Road",
    "Address2": "",
    "City": "Louisville",
    "State": "KY",
    "Zipcode": "40291"
  },
  {
    "Address1": "175 Creek Road",
    "Address2": "",
    "City": "Castleton",
    "State": "VT",
    "Zipcode": "05735"
  },
  {
    "Address1": "2531 Prestwick Avenue",
    "Address2": "",
    "City": "Concord",
    "State": "CA",
    "Zipcode": "94519"
  },
  {
    "Address1": "1002 Highland Avenue",
    "Address2": "",
    "City": "Louisville",
    "State": "KY",
    "Zipcode": "40204"
  },
  {
    "Address1": "2927 Leatherwood Drive",
    "Address2": "",
    "City": "Nashville",
    "State": "TN",
    "Zipcode": "37214"
  },
  {
    "Address1": "8467 Chase Drive",
    "Address2": "",
    "City": "Arvada",
    "State": "CO",
    "Zipcode": "80003"
  },
  {
    "Address1": "8556 Nelson Court",
    "Address2": "",
    "City": "Arvada",
    "State": "CO",
    "Zipcode": "80005"
  },
  {
    "Address1": "122 Summer Street",
    "Address2": "#1",
    "City": "Medford",
    "State": "MA",
    "Zipcode": "02155"
  },
  {
    "Address1": "12061 Johns Road",
    "Address2": "#APT 000002",
    "City": "Anchorage",
    "State": "AK",
    "Zipcode": "99515"
  },
  {
    "Address1": "8358 WB&A Road",
    "Address2": "",
    "City": "Severn",
    "State": "MD",
    "Zipcode": "21144"
  },
  {
    "Address1": "43 Henderson Avenue",
    "Address2": "",
    "City": "Savannah",
    "State": "GA",
    "Zipcode": "31406"
  },
  {
    "Address1": "347 Brewer Drive",
    "Address2": "",
    "City": "Nashville",
    "State": "TN",
    "Zipcode": "37211"
  },
  {
    "Address1": "2765 North Barcelona Avenue",
    "Address2": "",
    "City": "Fayetteville",
    "State": "AR",
    "Zipcode": "72703"
  },
  {
    "Address1": "5311 Chenoweth Park Lane",
    "Address2": "",
    "City": "Louisville",
    "State": "KY",
    "Zipcode": "40291"
  },
  {
    "Address1": "6398 Jellison Way",
    "Address2": "",
    "City": "Arvada",
    "State": "CO",
    "Zipcode": "80004"
  },
  {
    "Address1": "604 Northwest 118th Street",
    "Address2": "",
    "City": "Oklahoma City",
    "State": "OK",
    "Zipcode": "73114"
  },
  {
    "Address1": "37 Rushforde Drive",
    "Address2": "",
    "City": "Manchester",
    "State": "CT",
    "Zipcode": "06040"
  },
  {
    "Address1": "5434 West Beck Lane",
    "Address2": "",
    "City": "Glendale",
    "State": "AZ",
    "Zipcode": "85306"
  },
  {
    "Address1": "1516 Ringe Drive",
    "Address2": "",
    "City": "Severn",
    "State": "MD",
    "Zipcode": "21144"
  },
  {
    "Address1": "3701 Lake Towne Drive",
    "Address2": "",
    "City": "Nashville",
    "State": "TN",
    "Zipcode": "37013"
  },
  {
    "Address1": "20250 North 67th Avenue",
    "Address2": "#2143",
    "City": "Glendale",
    "State": "AZ",
    "Zipcode": "85308"
  },
  {
    "Address1": "62 Prospect Avenue",
    "Address2": "#1",
    "City": "Quincy",
    "State": "MA",
    "Zipcode": "02170"
  },
  {
    "Address1": "25 Morton Street",
    "Address2": "#216",
    "City": "Quincy",
    "State": "MA",
    "Zipcode": "02169"
  },
  {
    "Address1": "8202 4 Winds Drive",
    "Address2": "#3",
    "City": "Lyndon",
    "State": "KY",
    "Zipcode": "40222"
  },
  {
    "Address1": "513 Habberton Road",
    "Address2": "",
    "City": "Fayetteville",
    "State": "AR",
    "Zipcode": "72703"
  },
  {
    "Address1": "1960 Sigfrid Court",
    "Address2": "",
    "City": "Annapolis",
    "State": "MD",
    "Zipcode": "21401"
  },
  {
    "Address1": "663 Chesapeake Way",
    "Address2": "#1",
    "City": "Fayetteville",
    "State": "AR",
    "Zipcode": "72701"
  },
  {
    "Address1": "3354 Wilmington Road",
    "Address2": "",
    "City": "Montgomery",
    "State": "AL",
    "Zipcode": "36105"
  },
  {
    "Address1": "8529 Old Harding Lane",
    "Address2": "",
    "City": "Nashville",
    "State": "TN",
    "Zipcode": "37221"
  },
  {
    "Address1": "22219 Panama City Beach Parkway",
    "Address2": "",
    "City": "Panama City Beach",
    "State": "FL",
    "Zipcode": "32413"
  },
  {
    "Address1": "37 East Broad Street",
    "Address2": "",
    "City": "Savannah",
    "State": "GA",
    "Zipcode": "31401"
  },
  {
    "Address1": "1309 Columbia Road Northwest",
    "Address2": "",
    "City": "Washington",
    "State": "DC",
    "Zipcode": "20009"
  },
  {
    "Address1": "1211 Castine Court",
    "Address2": "",
    "City": "Pasadena",
    "State": "MD",
    "Zipcode": "21122"
  },
  {
    "Address1": "906 West Berry Street",
    "Address2": "#204",
    "City": "Fayetteville",
    "State": "AR",
    "Zipcode": "72701"
  },
  {
    "Address1": "341 Oakland Street",
    "Address2": "",
    "City": "Manchester",
    "State": "CT",
    "Zipcode": "06042"
  },
  {
    "Address1": "60 Downey Drive",
    "Address2": "",
    "City": "Manchester",
    "State": "CT",
    "Zipcode": "06040"
  },
  {
    "Address1": "3770 North Front Street",
    "Address2": "",
    "City": "Fayetteville",
    "State": "AR",
    "Zipcode": "72703"
  },
  {
    "Address1": "25 Church Street",
    "Address2": "A",
    "City": "Pittsfield",
    "State": "MA",
    "Zipcode": "01201"
  },
  {
    "Address1": "6578 Marauder Drive",
    "Address2": "",
    "City": "Nashville",
    "State": "TN",
    "Zipcode": "37209"
  },
  {
    "Address1": "2747 68th Avenue",
    "Address2": "",
    "City": "Oakland",
    "State": "CA",
    "Zipcode": "94605"
  },
  {
    "Address1": "95 Woods Hill Road",
    "Address2": "",
    "City": "Manchester",
    "State": "VT",
    "Zipcode": "05488"
  },
  {
    "Address1": "35 Keach Avenue",
    "Address2": "",
    "City": "Worcester",
    "State": "MA",
    "Zipcode": "01607"
  },
  {
    "Address1": "1822 North Grand Avenue",
    "Address2": "",
    "City": "Pueblo",
    "State": "CO",
    "Zipcode": "81003"
  },
  {
    "Address1": "1809 U.S. 80",
    "Address2": "",
    "City": "Savannah",
    "State": "GA",
    "Zipcode": "31408"
  },
  {
    "Address1": "5065 North 54th Avenue",
    "Address2": "#8",
    "City": "Glendale",
    "State": "AZ",
    "Zipcode": "85301"
  },
  {
    "Address1": "1261 Steamboat Drive",
    "Address2": "#3",
    "City": "Fayetteville",
    "State": "AR",
    "Zipcode": "72704"
  },
  {
    "Address1": "1695 Archer Street",
    "Address2": "",
    "City": "Savannah",
    "State": "GA",
    "Zipcode": "31405"
  },
  {
    "Address1": "3904 October Woods Drive",
    "Address2": "",
    "City": "Nashville",
    "State": "TN",
    "Zipcode": "37013"
  },
  {
    "Address1": "1223 Delaware Avenue",
    "Address2": "",
    "City": "Deale",
    "State": "MD",
    "Zipcode": "20733"
  },
  {
    "Address1": "10383 Eagle River Lane",
    "Address2": "",
    "City": "Anchorage",
    "State": "AK",
    "Zipcode": "99577"
  },
  {
    "Address1": "1314 89th Avenue",
    "Address2": "",
    "City": "Oakland",
    "State": "CA",
    "Zipcode": "94621"
  },
  {
    "Address1": "21 Longview Bluff Drive East",
    "Address2": "",
    "City": "Savannah",
    "State": "GA",
    "Zipcode": "31419"
  },
  {
    "Address1": "1689 Fisher Pond Road",
    "Address2": "",
    "City": "Saint Albans City",
    "State": "VT",
    "Zipcode": "05478"
  },
  {
    "Address1": "9920 West 81st Avenue",
    "Address2": "",
    "City": "Arvada",
    "State": "CO",
    "Zipcode": "80005"
  },
  {
    "Address1": "2732 Rosedale Place",
    "Address2": "",
    "City": "Nashville",
    "State": "TN",
    "Zipcode": "37211"
  },
  {
    "Address1": "10881 Northforde Drive",
    "Address2": "",
    "City": "Cupertino",
    "State": "CA",
    "Zipcode": "95014"
  },
  {
    "Address1": "926 Mill Court",
    "Address2": "",
    "City": "Savannah",
    "State": "GA",
    "Zipcode": "31419"
  },
  {
    "Address1": "7550 Kline Drive",
    "Address2": "",
    "City": "Arvada",
    "State": "CO",
    "Zipcode": "80005"
  },
  {
    "Address1": "5688 Johnson Court",
    "Address2": "",
    "City": "Arvada",
    "State": "CO",
    "Zipcode": "80002"
  },
  {
    "Address1": "4439 Gale Street",
    "Address2": "",
    "City": "Livermore",
    "State": "CA",
    "Zipcode": "94550"
  },
  {
    "Address1": "6450 West Bethany Home Road",
    "Address2": "",
    "City": "Glendale",
    "State": "AZ",
    "Zipcode": "85301"
  },
  {
    "Address1": "2931 Shady Oaks Drive",
    "Address2": "",
    "City": "Evans",
    "State": "CO",
    "Zipcode": "80620"
  },
  {
    "Address1": "6451 West Bell Road",
    "Address2": "#1144",
    "City": "Glendale",
    "State": "AZ",
    "Zipcode": "85308"
  },
  {
    "Address1": "644 West Maple Street",
    "Address2": "#2",
    "City": "Fayetteville",
    "State": "AR",
    "Zipcode": "72701"
  },
  {
    "Address1": "1219 North Storer Avenue",
    "Address2": "#66",
    "City": "Fayetteville",
    "State": "AR",
    "Zipcode": "72703"
  },
  {
    "Address1": "152 Holly Court",
    "Address2": "",
    "City": "Mountain View",
    "State": "CA",
    "Zipcode": "94043"
  },
  {
    "Address1": "6086 Kennedy Drive",
    "Address2": "",
    "City": "Fayetteville",
    "State": "AR",
    "Zipcode": "72704"
  },
  {
    "Address1": "2300 Deer Path Circle",
    "Address2": "#207",
    "City": "Hurstbourne Acres",
    "State": "KY",
    "Zipcode": "40220"
  },
  {
    "Address1": "802 East 37th Street",
    "Address2": "",
    "City": "Savannah",
    "State": "GA",
    "Zipcode": "31401"
  },
  {
    "Address1": "5821 Taft Street",
    "Address2": "",
    "City": "Arvada",
    "State": "CO",
    "Zipcode": "80004"
  },
  {
    "Address1": "188 Saint Matthews Avenue",
    "Address2": "#1",
    "City": "Louisville",
    "State": "KY",
    "Zipcode": "40207"
  },
  {
    "Address1": "68 Hampstead Place",
    "Address2": "",
    "City": "Athol",
    "State": "MA",
    "Zipcode": "01331"
  },
  {
    "Address1": "3164 West Woodfield Way",
    "Address2": "",
    "City": "Fayetteville",
    "State": "AR",
    "Zipcode": "72704"
  },
  {
    "Address1": "7998 Chase Circle",
    "Address2": "#1",
    "City": "Arvada",
    "State": "CO",
    "Zipcode": "80003"
  },
  {
    "Address1": "1797 Pasatiempo Drive",
    "Address2": "",
    "City": "Chico",
    "State": "CA",
    "Zipcode": "95928"
  },
  {
    "Address1": "3722 Kisling Loop",
    "Address2": "",
    "City": "Tyndall Air Force Base",
    "State": "FL",
    "Zipcode": "32403"
  },
  {
    "Address1": "429 Patterson Street",
    "Address2": "",
    "City": "Nashville",
    "State": "TN",
    "Zipcode": "37211"
  },
  {
    "Address1": "6140 Fenton Street",
    "Address2": "",
    "City": "Arvada",
    "State": "CO",
    "Zipcode": "80003"
  },
  {
    "Address1": "7404 West Crest Lane",
    "Address2": "",
    "City": "Glendale",
    "State": "AZ",
    "Zipcode": "85310"
  },
  {
    "Address1": "7841 North 59th Lane",
    "Address2": "#G37",
    "City": "Glendale",
    "State": "AZ",
    "Zipcode": "85301"
  },
  {
    "Address1": "8043 Cranberry Street",
    "Address2": "#APT 000001",
    "City": "Anchorage",
    "State": "AK",
    "Zipcode": "99502"
  },
  {
    "Address1": "173 Spruce Street",
    "Address2": "#18",
    "City": "Manchester",
    "State": "CT",
    "Zipcode": "06040"
  },
  {
    "Address1": "4712 Cherokee Heights Road",
    "Address2": "",
    "City": "Panama City",
    "State": "FL",
    "Zipcode": "32404"
  },
  {
    "Address1": "915 Sacramento Street",
    "Address2": "",
    "City": "Bakersfield",
    "State": "CA",
    "Zipcode": "93305"
  },
  {
    "Address1": "317 Windsor Road",
    "Address2": "",
    "City": "Savannah",
    "State": "GA",
    "Zipcode": "31419"
  },
  {
    "Address1": "1332 Maple Street",
    "Address2": "",
    "City": "Montgomery",
    "State": "AL",
    "Zipcode": "36108"
  },
  {
    "Address1": "4709 Blagden Terrace Northwest",
    "Address2": "",
    "City": "Washington",
    "State": "DC",
    "Zipcode": "20011"
  },
  {
    "Address1": "5102 Ander Drive",
    "Address2": "",
    "City": "Brentwood",
    "State": "TN",
    "Zipcode": "37027"
  },
  {
    "Address1": "6754 Field Street",
    "Address2": "",
    "City": "Arvada",
    "State": "CO",
    "Zipcode": "80004"
  },
  {
    "Address1": "2347 Glen Eagle Drive",
    "Address2": "",
    "City": "Northfield",
    "State": "KY",
    "Zipcode": "40222"
  },
  {
    "Address1": "1613 Maple Timber Court",
    "Address2": "",
    "City": "Nashville",
    "State": "TN",
    "Zipcode": "37013"
  },
  {
    "Address1": "269 Park Street",
    "Address2": "#1",
    "City": "North Reading",
    "State": "MA",
    "Zipcode": "01864"
  },
  {
    "Address1": "6444 North 67th Avenue",
    "Address2": "#1081",
    "City": "Glendale",
    "State": "AZ",
    "Zipcode": "85301"
  },
  {
    "Address1": "11 Pine Point Road",
    "Address2": "",
    "City": "Duxbury",
    "State": "MA",
    "Zipcode": "02332"
  },
  {
    "Address1": "4136 East Virginia Lane",
    "Address2": "",
    "City": "Montgomery",
    "State": "AL",
    "Zipcode": "36116"
  },
  {
    "Address1": "5740 North 59th Avenue",
    "Address2": "#1156",
    "City": "Glendale",
    "State": "AZ",
    "Zipcode": "85301"
  },
  {
    "Address1": "95 Central Street",
    "Address2": "A",
    "City": "Springfield",
    "State": "MA",
    "Zipcode": "01105"
  },
  {
    "Address1": "74 Heard Street",
    "Address2": "#1",
    "City": "Chelsea",
    "State": "MA",
    "Zipcode": "02150"
  },
  {
    "Address1": "2500 Snowdoun Chambers Road",
    "Address2": "",
    "City": "Montgomery",
    "State": "AL",
    "Zipcode": "36105"
  },
  {
    "Address1": "429 Dennison Ridge Drive",
    "Address2": "",
    "City": "Manchester",
    "State": "CT",
    "Zipcode": "06040"
  },
  {
    "Address1": "1208 Lindenwood Drive",
    "Address2": "",
    "City": "Panama City",
    "State": "FL",
    "Zipcode": "32405"
  },
  {
    "Address1": "7609 Doris Place",
    "Address2": "",
    "City": "Oklahoma City",
    "State": "OK",
    "Zipcode": "73162"
  },
  {
    "Address1": "1915 Southeast 29th Street",
    "Address2": "",
    "City": "Oklahoma City",
    "State": "OK",
    "Zipcode": "73129"
  },
  {
    "Address1": "212 Holiday Circle",
    "Address2": "",
    "City": "Savannah",
    "State": "GA",
    "Zipcode": "31419"
  },
  {
    "Address1": "32 Amsden Street",
    "Address2": "#1",
    "City": "Arlington",
    "State": "MA",
    "Zipcode": "02474"
  },
  {
    "Address1": "4016 Doane Street",
    "Address2": "",
    "City": "Fremont",
    "State": "CA",
    "Zipcode": "94538"
  },
  {
    "Address1": "8700 Lillington Circle",
    "Address2": "",
    "City": "Montgomery",
    "State": "AL",
    "Zipcode": "36117"
  },
  {
    "Address1": "7720 Allison Street",
    "Address2": "#105",
    "City": "Arvada",
    "State": "CO",
    "Zipcode": "80005"
  },
  {
    "Address1": "17878 Front Beach Road",
    "Address2": "#C-2",
    "City": "Panama City Beach",
    "State": "FL",
    "Zipcode": "32413"
  },
  {
    "Address1": "1328 Tuckerman Street Northwest",
    "Address2": "",
    "City": "Washington",
    "State": "DC",
    "Zipcode": "20011"
  },
  {
    "Address1": "4600 East Huntsville Road",
    "Address2": "",
    "City": "Fayetteville",
    "State": "AR",
    "Zipcode": "72701"
  },
  {
    "Address1": "5038 North Cimarron Drive",
    "Address2": "",
    "City": "Beverly Hills",
    "State": "FL",
    "Zipcode": "34465"
  },
  {
    "Address1": "1216 West Hill Street",
    "Address2": "M",
    "City": "Louisville",
    "State": "KY",
    "Zipcode": "40210"
  },
  {
    "Address1": "3033 Aubert Avenue",
    "Address2": "",
    "City": "Louisville",
    "State": "KY",
    "Zipcode": "40206"
  },
  {
    "Address1": "17020 West 64th Drive",
    "Address2": "",
    "City": "Arvada",
    "State": "CO",
    "Zipcode": "80007"
  },
  {
    "Address1": "12420 West Montebello Avenue",
    "Address2": "",
    "City": "Litchfield Park",
    "State": "AZ",
    "Zipcode": "85340"
  },
  {
    "Address1": "2538 East 40th Plaza",
    "Address2": "",
    "City": "Panama City",
    "State": "FL",
    "Zipcode": "32405"
  },
  {
    "Address1": "827 10th Street Northeast",
    "Address2": "",
    "City": "Washington",
    "State": "DC",
    "Zipcode": "20002"
  },
  {
    "Address1": "5912 North 48th Avenue",
    "Address2": "",
    "City": "Glendale",
    "State": "AZ",
    "Zipcode": "85301"
  },
  {
    "Address1": "37 Fieldside Drive",
    "Address2": "",
    "City": "Groton",
    "State": "CT",
    "Zipcode": "06340"
  },
  {
    "Address1": "9176 Ellis Way",
    "Address2": "",
    "City": "Arvada",
    "State": "CO",
    "Zipcode": "80005"
  },
  {
    "Address1": "5370 Business Park Drive",
    "Address2": "",
    "City": "Montgomery",
    "State": "AL",
    "Zipcode": "36116"
  },
  {
    "Address1": "1612 Beech Street",
    "Address2": "",
    "City": "Louisville",
    "State": "KY",
    "Zipcode": "40211"
  },
  {
    "Address1": "8532 Ingalls Circle",
    "Address2": "",
    "City": "Arvada",
    "State": "CO",
    "Zipcode": "80003"
  },
  {
    "Address1": "7941 Alpine View Circle",
    "Address2": "",
    "City": "Anchorage",
    "State": "AK",
    "Zipcode": "99507"
  },
  {
    "Address1": "8595 West 81st Drive",
    "Address2": "",
    "City": "Arvada",
    "State": "CO",
    "Zipcode": "80005"
  },
  {
    "Address1": "4296 North Blossom Court",
    "Address2": "",
    "City": "Fayetteville",
    "State": "AR",
    "Zipcode": "72703"
  },
  {
    "Address1": "1738 Annabellas Drive",
    "Address2": "",
    "City": "Panama City Beach",
    "State": "FL",
    "Zipcode": "32407"
  },
  {
    "Address1": "3215 Madsen Street",
    "Address2": "",
    "City": "Hayward",
    "State": "CA",
    "Zipcode": "94541"
  },
  {
    "Address1": "4 Village Lake Drive",
    "Address2": "#4",
    "City": "Fayetteville",
    "State": "AR",
    "Zipcode": "72703"
  },
  {
    "Address1": "86 Russell Street",
    "Address2": "",
    "City": "Manchester",
    "State": "CT",
    "Zipcode": "06040"
  },
  {
    "Address1": "570 Broadway",
    "Address2": "",
    "City": "Lynnfield",
    "State": "MA",
    "Zipcode": "01940"
  },
  {
    "Address1": "1405 Monroe Street Northeast",
    "Address2": "",
    "City": "Washington",
    "State": "DC",
    "Zipcode": "20017"
  },
  {
    "Address1": "900 North Leverett Avenue",
    "Address2": "#126",
    "City": "Fayetteville",
    "State": "AR",
    "Zipcode": "72701"
  },
  {
    "Address1": "222 Quince Street",
    "Address2": "#2-B",
    "City": "San Diego",
    "State": "CA",
    "Zipcode": "92103"
  },
  {
    "Address1": "370 Wallace Road",
    "Address2": "#D-28",
    "City": "Nashville",
    "State": "TN",
    "Zipcode": "37211"
  },
  {
    "Address1": "6672 Urban Court",
    "Address2": "",
    "City": "Arvada",
    "State": "CO",
    "Zipcode": "80004"
  },
  {
    "Address1": "516 Southwest 60th Terrace",
    "Address2": "",
    "City": "Oklahoma City",
    "State": "OK",
    "Zipcode": "73139"
  },
  {
    "Address1": "1513 Southeast 9th Street",
    "Address2": "",
    "City": "Moore",
    "State": "OK",
    "Zipcode": "73160"
  },
  {
    "Address1": "154 Byrd Drive",
    "Address2": "",
    "City": "Panama City",
    "State": "FL",
    "Zipcode": "32404"
  },
  {
    "Address1": "1106 Homer Avenue",
    "Address2": "",
    "City": "Savannah",
    "State": "GA",
    "Zipcode": "31405"
  },
  {
    "Address1": "1010 M Street Northwest",
    "Address2": "",
    "City": "Washington",
    "State": "DC",
    "Zipcode": "20001"
  },
  {
    "Address1": "5420 Allison Street",
    "Address2": "#202",
    "City": "Arvada",
    "State": "CO",
    "Zipcode": "80002"
  },
  {
    "Address1": "20 Hacker Street",
    "Address2": "#3",
    "City": "Worcester",
    "State": "MA",
    "Zipcode": "01603"
  },
  {
    "Address1": "732 Kevin Court",
    "Address2": "",
    "City": "Oakland",
    "State": "CA",
    "Zipcode": "94621"
  },
  {
    "Address1": "509 Franklin Street Northeast",
    "Address2": "",
    "City": "Washington",
    "State": "DC",
    "Zipcode": "20017"
  },
  {
    "Address1": "23 Whitcomb Street",
    "Address2": "",
    "City": "Springfield",
    "State": "VT",
    "Zipcode": "05156"
  },
  {
    "Address1": "3377 Sandstone Court",
    "Address2": "",
    "City": "Pleasanton",
    "State": "CA",
    "Zipcode": "94588"
  },
  {
    "Address1": "14 Huntington Street",
    "Address2": "",
    "City": "Manchester",
    "State": "CT",
    "Zipcode": "06040"
  },
  {
    "Address1": "2802 US Highway 98",
    "Address2": "BLDG F",
    "City": "Mexico Beach",
    "State": "FL",
    "Zipcode": "32456"
  },
  {
    "Address1": "412 Virginia Avenue",
    "Address2": "",
    "City": "Louisville",
    "State": "KY",
    "Zipcode": "40222"
  },
  {
    "Address1": "1644 New Jersey Avenue Northwest",
    "Address2": "",
    "City": "Washington",
    "State": "DC",
    "Zipcode": "20001"
  },
  {
    "Address1": "832 51st Street Northeast",
    "Address2": "",
    "City": "Washington",
    "State": "DC",
    "Zipcode": "20019"
  },
  {
    "Address1": "894 Windmill Park Lane",
    "Address2": "",
    "City": "Mountain View",
    "State": "CA",
    "Zipcode": "94043"
  },
  {
    "Address1": "9636 Morar Road",
    "Address2": "",
    "City": "Panama City",
    "State": "FL",
    "Zipcode": "32409"
  },
  {
    "Address1": "9472 Noble Way",
    "Address2": "",
    "City": "Arvada",
    "State": "CO",
    "Zipcode": "80007"
  },
  {
    "Address1": "618 Staley Avenue",
    "Address2": "",
    "City": "Hayward",
    "State": "CA",
    "Zipcode": "94541"
  },
  {
    "Address1": "8704 Bayberry Place",
    "Address2": "",
    "City": "Plantation",
    "State": "KY",
    "Zipcode": "40242"
  },
  {
    "Address1": "2506 West Madison Street",
    "Address2": "",
    "City": "Louisville",
    "State": "KY",
    "Zipcode": "40211"
  },
  {
    "Address1": "840 Inglewood Drive",
    "Address2": "",
    "City": "West Sacramento",
    "State": "CA",
    "Zipcode": "95605"
  },
  {
    "Address1": "10 Dalry Lane",
    "Address2": "",
    "City": "Savannah",
    "State": "GA",
    "Zipcode": "31419"
  },
  {
    "Address1": "3301 Nora Lane",
    "Address2": "",
    "City": "Louisville",
    "State": "KY",
    "Zipcode": "40220"
  },
  {
    "Address1": "8304 Glaser Lane",
    "Address2": "",
    "City": "Louisville",
    "State": "KY",
    "Zipcode": "40291"
  },
  {
    "Address1": "3720 West 86th Avenue",
    "Address2": "APT F",
    "City": "Anchorage",
    "State": "AK",
    "Zipcode": "99502"
  },
  {
    "Address1": "3298 Chestnut Street Northwest",
    "Address2": "",
    "City": "Washington",
    "State": "DC",
    "Zipcode": "20015"
  },
  {
    "Address1": "82 Fairfield Street",
    "Address2": "",
    "City": "Manchester",
    "State": "CT",
    "Zipcode": "06040"
  },
  {
    "Address1": "3138 P Street Northwest",
    "Address2": "",
    "City": "Washington",
    "State": "DC",
    "Zipcode": "20007"
  },
  {
    "Address1": "80 Locust Avenue",
    "Address2": "#110",
    "City": "Worcester",
    "State": "MA",
    "Zipcode": "01604"
  },
  {
    "Address1": "2715 Thornbrook Court",
    "Address2": "",
    "City": "Odenton",
    "State": "MD",
    "Zipcode": "21113"
  },
  {
    "Address1": "3579 2nd Avenue",
    "Address2": "",
    "City": "Edgewater",
    "State": "MD",
    "Zipcode": "21037"
  },
  {
    "Address1": "6739 Taft Court",
    "Address2": "",
    "City": "Arvada",
    "State": "CO",
    "Zipcode": "80004"
  },
  {
    "Address1": "1528 Stafford Avenue",
    "Address2": "",
    "City": "Hayward",
    "State": "CA",
    "Zipcode": "94541"
  },
  {
    "Address1": "2024 Merrily Drive",
    "Address2": "",
    "City": "Montgomery",
    "State": "AL",
    "Zipcode": "36111"
  },
  {
    "Address1": "2034 Fairfax Road",
    "Address2": "",
    "City": "Annapolis",
    "State": "MD",
    "Zipcode": "21401"
  },
  {
    "Address1": "1430 East Audubon Road",
    "Address2": "",
    "City": "Montgomery",
    "State": "AL",
    "Zipcode": "36111"
  },
  {
    "Address1": "3652 East Blue Stone Drive",
    "Address2": "",
    "City": "Fayetteville",
    "State": "AR",
    "Zipcode": "72764"
  },
  {
    "Address1": "3302 Woodland Park Drive",
    "Address2": "#APT 000001",
    "City": "Anchorage",
    "State": "AK",
    "Zipcode": "99517"
  },
  {
    "Address1": "1771 Daisey Court",
    "Address2": "",
    "City": "Millersville",
    "State": "MD",
    "Zipcode": "21108"
  },
  {
    "Address1": "406 East Waldburg Street",
    "Address2": "",
    "City": "Savannah",
    "State": "GA",
    "Zipcode": "31401"
  },
  {
    "Address1": "11843 North 60th Avenue",
    "Address2": "",
    "City": "Glendale",
    "State": "AZ",
    "Zipcode": "85304"
  },
  {
    "Address1": "9515 West 74th Avenue",
    "Address2": "",
    "City": "Arvada",
    "State": "CO",
    "Zipcode": "80005"
  },
  {
    "Address1": "119 Antioch Pike",
    "Address2": "",
    "City": "Nashville",
    "State": "TN",
    "Zipcode": "37211"
  },
  {
    "Address1": "1157 1st Street Northwest",
    "Address2": "",
    "City": "Washington",
    "State": "DC",
    "Zipcode": "20001"
  },
  {
    "Address1": "3578 Galindo Street",
    "Address2": "",
    "City": "Oakland",
    "State": "CA",
    "Zipcode": "94601"
  },
  {
    "Address1": "12800 Saunders Road",
    "Address2": "",
    "City": "Anchorage",
    "State": "AK",
    "Zipcode": "99516"
  },
  {
    "Address1": "5556 West Northview Avenue",
    "Address2": "",
    "City": "Glendale",
    "State": "AZ",
    "Zipcode": "85301"
  },
  {
    "Address1": "3617 Oak Grove Circle",
    "Address2": "",
    "City": "Montgomery",
    "State": "AL",
    "Zipcode": "36116"
  },
  {
    "Address1": "2443 Sierra Nevada Road",
    "Address2": "#N5",
    "City": "Mammoth Lakes",
    "State": "CA",
    "Zipcode": "93546"
  },
  {
    "Address1": "10124 Watsonville Road",
    "Address2": "",
    "City": "Louisville",
    "State": "KY",
    "Zipcode": "40272"
  },
  {
    "Address1": "2441 Chase Park Drive",
    "Address2": "",
    "City": "Montgomery",
    "State": "AL",
    "Zipcode": "36110"
  },
  {
    "Address1": "28 Wayne Avenue",
    "Address2": "",
    "City": "Waltham",
    "State": "MA",
    "Zipcode": "02453"
  },
  {
    "Address1": "3605 Normandy Place South",
    "Address2": "",
    "City": "Nashville",
    "State": "TN",
    "Zipcode": "37209"
  },
  {
    "Address1": "25538 Calaroga Avenue",
    "Address2": "",
    "City": "Hayward",
    "State": "CA",
    "Zipcode": "94545"
  },
  {
    "Address1": "1521 159th Avenue",
    "Address2": "",
    "City": "San Leandro",
    "State": "CA",
    "Zipcode": "94578"
  },
  {
    "Address1": "344 Island Road",
    "Address2": "",
    "City": "Savannah",
    "State": "GA",
    "Zipcode": "31406"
  },
  {
    "Address1": "826 South Hancock Street",
    "Address2": "",
    "City": "Louisville",
    "State": "KY",
    "Zipcode": "40203"
  },
  {
    "Address1": "2212 Greenville Street",
    "Address2": "",
    "City": "Montgomery",
    "State": "AL",
    "Zipcode": "36107"
  },
  {
    "Address1": "325 East 7th Street",
    "Address2": "",
    "City": "Edmond",
    "State": "OK",
    "Zipcode": "73034"
  },
  {
    "Address1": "7 Maple Hill Road",
    "Address2": "",
    "City": "Aquinnah",
    "State": "MA",
    "Zipcode": "02535"
  },
  {
    "Address1": "73455 Twentynine Palms Highway",
    "Address2": "",
    "City": "Twentynine Palms",
    "State": "CA",
    "Zipcode": "92277"
  },
  {
    "Address1": "410 West 89th Avenue",
    "Address2": "",
    "City": "Anchorage",
    "State": "AK",
    "Zipcode": "99515"
  },
  {
    "Address1": "24147 Clinton Court",
    "Address2": "",
    "City": "Hayward",
    "State": "CA",
    "Zipcode": "94545"
  },
  {
    "Address1": "5620 Lilly Street",
    "Address2": "",
    "City": "Panama City",
    "State": "FL",
    "Zipcode": "32404"
  },
  {
    "Address1": "207 Spruce Street",
    "Address2": "",
    "City": "Manchester",
    "State": "CT",
    "Zipcode": "06040"
  },
  {
    "Address1": "236 Alden Road",
    "Address2": "",
    "City": "Hayward",
    "State": "CA",
    "Zipcode": "94541"
  },
  {
    "Address1": "467 North Mountain Ranch Road",
    "Address2": "",
    "City": "Fayetteville",
    "State": "AR",
    "Zipcode": "72704"
  },
  {
    "Address1": "2042 High Street",
    "Address2": "",
    "City": "Oakland",
    "State": "CA",
    "Zipcode": "94601"
  },
  {
    "Address1": "6244 Sun River Drive",
    "Address2": "",
    "City": "Sacramento",
    "State": "CA",
    "Zipcode": "95824"
  },
  {
    "Address1": "8801 Rosshire Drive",
    "Address2": "",
    "City": "Louisville",
    "State": "KY",
    "Zipcode": "40118"
  },
  {
    "Address1": "449 15th Street Northeast",
    "Address2": "",
    "City": "Washington",
    "State": "DC",
    "Zipcode": "20002"
  },
  {
    "Address1": "4385 Wares Ferry Road",
    "Address2": "",
    "City": "Montgomery",
    "State": "AL",
    "Zipcode": "36109"
  },
  {
    "Address1": "8546 North 59th Lane",
    "Address2": "#171",
    "City": "Glendale",
    "State": "AZ",
    "Zipcode": "85302"
  },
  {
    "Address1": "8262 Elvaton Road",
    "Address2": "",
    "City": "Millersville",
    "State": "MD",
    "Zipcode": "21108"
  },
  {
    "Address1": "7018 Russell Court",
    "Address2": "",
    "City": "Arvada",
    "State": "CO",
    "Zipcode": "80007"
  },
  {
    "Address1": "1353 West 27th Avenue",
    "Address2": "#APT 000004",
    "City": "Anchorage",
    "State": "AK",
    "Zipcode": "99503"
  },
  {
    "Address1": "1030 Lake Claire Drive",
    "Address2": "",
    "City": "Annapolis",
    "State": "MD",
    "Zipcode": "21409"
  },
  {
    "Address1": "10980 Splendor Loop",
    "Address2": "",
    "City": "Anchorage",
    "State": "AK",
    "Zipcode": "99577"
  },
  {
    "Address1": "36043 Soapberry Commons",
    "Address2": "",
    "City": "Fremont",
    "State": "CA",
    "Zipcode": "94536"
  },
  {
    "Address1": "419 Wabasso Avenue",
    "Address2": "",
    "City": "Louisville",
    "State": "KY",
    "Zipcode": "40209"
  },
  {
    "Address1": "2098 Lower Newton Street",
    "Address2": "",
    "City": "Saint Albans City",
    "State": "VT",
    "Zipcode": "05478"
  },
  {
    "Address1": "115 Waddell Road",
    "Address2": "",
    "City": "Manchester",
    "State": "CT",
    "Zipcode": "06040"
  },
  {
    "Address1": "463 East Rutgers Loop",
    "Address2": "",
    "City": "Montgomery",
    "State": "AL",
    "Zipcode": "36109"
  },
  {
    "Address1": "31130 Meadowbrook Avenue",
    "Address2": "",
    "City": "Hayward",
    "State": "CA",
    "Zipcode": "94544"
  },
  {
    "Address1": "8506 Laviento Drive",
    "Address2": "",
    "City": "Anchorage",
    "State": "AK",
    "Zipcode": "99515"
  },
  {
    "Address1": "19404 North 77th Avenue",
    "Address2": "",
    "City": "Glendale",
    "State": "AZ",
    "Zipcode": "85308"
  },
  {
    "Address1": "302 East Granada Street",
    "Address2": "",
    "City": "Fayetteville",
    "State": "AR",
    "Zipcode": "72703"
  },
  {
    "Address1": "9321 Amy Lane",
    "Address2": "",
    "City": "Panama City Beach",
    "State": "FL",
    "Zipcode": "32407"
  },
  {
    "Address1": "1156 Greenhill Road",
    "Address2": "",
    "City": "Arnold",
    "State": "MD",
    "Zipcode": "21012"
  },
  {
    "Address1": "30 Curtis Road",
    "Address2": "#509",
    "City": "Milton",
    "State": "MA",
    "Zipcode": "02186"
  },
  {
    "Address1": "904 Shepherd Street Northwest",
    "Address2": "",
    "City": "Washington",
    "State": "DC",
    "Zipcode": "20011"
  },
  {
    "Address1": "124 Crane Street",
    "Address2": "",
    "City": "Panama City",
    "State": "FL",
    "Zipcode": "32413"
  },
  {
    "Address1": "15847 West 74th Place",
    "Address2": "",
    "City": "Arvada",
    "State": "CO",
    "Zipcode": "80007"
  },
  {
    "Address1": "435 Granite Street",
    "Address2": "",
    "City": "Quincy",
    "State": "MA",
    "Zipcode": "02169"
  },
  {
    "Address1": "4418 Signal Hill Road",
    "Address2": "",
    "City": "Louisville",
    "State": "KY",
    "Zipcode": "40207"
  },
  {
    "Address1": "2285 Wold Run Drive",
    "Address2": "#1",
    "City": "Fayetteville",
    "State": "AR",
    "Zipcode": "72704"
  },
  {
    "Address1": "110 Castle Hill",
    "Address2": "",
    "City": "Manchester",
    "State": "CT",
    "Zipcode": "06040"
  },
  {
    "Address1": "8474 Chase Drive",
    "Address2": "",
    "City": "Arvada",
    "State": "CO",
    "Zipcode": "80003"
  },
  {
    "Address1": "4074 North Sunflower Circle",
    "Address2": "",
    "City": "Fayetteville",
    "State": "AR",
    "Zipcode": "72703"
  },
  {
    "Address1": "249 Yellow Leaf Circle",
    "Address2": "",
    "City": "Anchorage",
    "State": "AK",
    "Zipcode": "99504"
  },
  {
    "Address1": "8010 Holland Court",
    "Address2": "D",
    "City": "Arvada",
    "State": "CO",
    "Zipcode": "80005"
  },
  {
    "Address1": "1300 East Dowling Road",
    "Address2": "",
    "City": "Anchorage",
    "State": "AK",
    "Zipcode": "99518"
  },
  {
    "Address1": "189 Danforth Street",
    "Address2": "",
    "City": "Framingham",
    "State": "MA",
    "Zipcode": "01701"
  },
  {
    "Address1": "1011 Bell Avenue",
    "Address2": "",
    "City": "Glen Burnie",
    "State": "MD",
    "Zipcode": "21060"
  },
  {
    "Address1": "5224 Wasena Avenue",
    "Address2": "",
    "City": "Baltimore",
    "State": "MD",
    "Zipcode": "21225"
  },
  {
    "Address1": "7613 Yule Court",
    "Address2": "",
    "City": "Arvada",
    "State": "CO",
    "Zipcode": "80007"
  },
  {
    "Address1": "1243 Doris Avenue",
    "Address2": "",
    "City": "Pasadena",
    "State": "MD",
    "Zipcode": "21122"
  },
  {
    "Address1": "3504 East 5th Street",
    "Address2": "",
    "City": "Panama City",
    "State": "FL",
    "Zipcode": "32401"
  },
  {
    "Address1": "1 Dunsmuir Lane",
    "Address2": "",
    "City": "Savannah",
    "State": "GA",
    "Zipcode": "31411"
  },
  {
    "Address1": "1320 Dunbarton Road",
    "Address2": "",
    "City": "Montgomery",
    "State": "AL",
    "Zipcode": "36117"
  },
  {
    "Address1": "14524 Lodestar Drive",
    "Address2": "",
    "City": "Grass Valley",
    "State": "CA",
    "Zipcode": "95949"
  },
  {
    "Address1": "8404 West Myrtle Avenue",
    "Address2": "",
    "City": "Glendale",
    "State": "AZ",
    "Zipcode": "85305"
  },
  {
    "Address1": "620 Oakland Avenue",
    "Address2": "",
    "City": "Fayetteville",
    "State": "AR",
    "Zipcode": "72701"
  },
  {
    "Address1": "39 Cottage Street",
    "Address2": "",
    "City": "Athol",
    "State": "MA",
    "Zipcode": "01331"
  },
  {
    "Address1": "82 Lookout Mountain Drive",
    "Address2": "",
    "City": "Manchester",
    "State": "CT",
    "Zipcode": "06040"
  },
  {
    "Address1": "1635 Generals Highway",
    "Address2": "",
    "City": "Annapolis",
    "State": "MD",
    "Zipcode": "21401"
  },
  {
    "Address1": "555 North Dupont Avenue",
    "Address2": "#C-55",
    "City": "Nashville",
    "State": "TN",
    "Zipcode": "37115"
  },
  {
    "Address1": "2505 North Hampton Court",
    "Address2": "",
    "City": "Fayetteville",
    "State": "AR",
    "Zipcode": "72703"
  },
  {
    "Address1": "136 Acacia Drive",
    "Address2": "",
    "City": "Blue Lake",
    "State": "CA",
    "Zipcode": "95525"
  },
  {
    "Address1": "22825 North 74th Lane",
    "Address2": "",
    "City": "Glendale",
    "State": "AZ",
    "Zipcode": "85310"
  },
  {
    "Address1": "643 Farragut Street Northwest",
    "Address2": "",
    "City": "Washington",
    "State": "DC",
    "Zipcode": "20011"
  },
  {
    "Address1": "17 West 26th Circle",
    "Address2": "",
    "City": "Fayetteville",
    "State": "AR",
    "Zipcode": "72701"
  },
  {
    "Address1": "335 C Street Southeast",
    "Address2": "",
    "City": "Washington",
    "State": "DC",
    "Zipcode": "20003"
  },
  {
    "Address1": "1418 Paddocks Court",
    "Address2": "",
    "City": "Crownsville",
    "State": "MD",
    "Zipcode": "21032"
  },
  {
    "Address1": "2917 Miramar Drive",
    "Address2": "",
    "City": "Fayetteville",
    "State": "AR",
    "Zipcode": "72704"
  },
  {
    "Address1": "301 Argonaut Street",
    "Address2": "",
    "City": "Panama City Beach",
    "State": "FL",
    "Zipcode": "32413"
  },
  {
    "Address1": "12901 Mission Circle",
    "Address2": "",
    "City": "Anchorage",
    "State": "AK",
    "Zipcode": "99516"
  },
  {
    "Address1": "3013 Sprowl Road",
    "Address2": "#4",
    "City": "Jeffersontown",
    "State": "KY",
    "Zipcode": "40299"
  },
  {
    "Address1": "5929 West Via Montoya Drive",
    "Address2": "",
    "City": "Glendale",
    "State": "AZ",
    "Zipcode": "85310"
  },
  {
    "Address1": "325 Joseph Circle",
    "Address2": "",
    "City": "Southport",
    "State": "FL",
    "Zipcode": "32409"
  },
  {
    "Address1": "922 Urciolo Court",
    "Address2": "",
    "City": "Annapolis",
    "State": "MD",
    "Zipcode": "21401"
  },
  {
    "Address1": "2212 Daffin Drive",
    "Address2": "",
    "City": "Savannah",
    "State": "GA",
    "Zipcode": "31404"
  },
  {
    "Address1": "1401 Cordova Street",
    "Address2": "#APT 000006",
    "City": "Anchorage",
    "State": "AK",
    "Zipcode": "99501"
  },
  {
    "Address1": "8064 Claytie Circle",
    "Address2": "",
    "City": "Nashville",
    "State": "TN",
    "Zipcode": "37221"
  },
  {
    "Address1": "566 Middle Turnpike East",
    "Address2": "",
    "City": "Manchester",
    "State": "CT",
    "Zipcode": "06040"
  },
  {
    "Address1": "93 Hamlin Street",
    "Address2": "",
    "City": "Manchester",
    "State": "CT",
    "Zipcode": "06040"
  },
  {
    "Address1": "123 Remember Baker Lane",
    "Address2": "",
    "City": "Hartford",
    "State": "VT",
    "Zipcode": "05001"
  },
  {
    "Address1": "125 Connors Street",
    "Address2": "#516",
    "City": "Gardner",
    "State": "MA",
    "Zipcode": "01440"
  },
  {
    "Address1": "2315 Chestnut Street",
    "Address2": "",
    "City": "Montgomery",
    "State": "AL",
    "Zipcode": "36107"
  },
  {
    "Address1": "2716 30th Street Southeast",
    "Address2": "",
    "City": "Washington",
    "State": "DC",
    "Zipcode": "20020"
  },
  {
    "Address1": "2406 Lindbergh Drive",
    "Address2": "",
    "City": "Louisville",
    "State": "KY",
    "Zipcode": "40208"
  },
  {
    "Address1": "2035 Ninth Street",
    "Address2": "R A",
    "City": "Berkeley",
    "State": "CA",
    "Zipcode": "94710"
  },
  {
    "Address1": "34 Holyoke Road",
    "Address2": "",
    "City": "Manchester",
    "State": "CT",
    "Zipcode": "06040"
  },
  {
    "Address1": "2276 West Woodley Square",
    "Address2": "",
    "City": "Montgomery",
    "State": "AL",
    "Zipcode": "36116"
  },
  {
    "Address1": "20251 North 75th Avenue",
    "Address2": "#1046",
    "City": "Glendale",
    "State": "AZ",
    "Zipcode": "85308"
  },
  {
    "Address1": "72 Bentley Avenue",
    "Address2": "",
    "City": "Poultney",
    "State": "VT",
    "Zipcode": "05764"
  },
  {
    "Address1": "2807 Huxley Place",
    "Address2": "",
    "City": "Fremont",
    "State": "CA",
    "Zipcode": "94555"
  },
  {
    "Address1": "7772 West Palmaire Avenue",
    "Address2": "",
    "City": "Glendale",
    "State": "AZ",
    "Zipcode": "85303"
  },
  {
    "Address1": "82 Linnmore Drive",
    "Address2": "",
    "City": "Manchester",
    "State": "CT",
    "Zipcode": "06040"
  },
  {
    "Address1": "882 Plantation Way",
    "Address2": "",
    "City": "Montgomery",
    "State": "AL",
    "Zipcode": "36117"
  },
  {
    "Address1": "8150 North 61st Avenue",
    "Address2": "#3128",
    "City": "Glendale",
    "State": "AZ",
    "Zipcode": "85302"
  },
  {
    "Address1": "503 Orchard Road",
    "Address2": "",
    "City": "Glen Burnie",
    "State": "MD",
    "Zipcode": "21061"
  },
  {
    "Address1": "3616 Echo Lane",
    "Address2": "",
    "City": "Nashville",
    "State": "TN",
    "Zipcode": "37218"
  },
  {
    "Address1": "376 Whites Road",
    "Address2": "",
    "City": "Wilmington",
    "State": "VT",
    "Zipcode": "05363"
  },
  {
    "Address1": "322 East Taylor Street",
    "Address2": "#1103",
    "City": "Savannah",
    "State": "GA",
    "Zipcode": "31401"
  },
  {
    "Address1": "605 Main Street",
    "Address2": "",
    "City": "Watertown",
    "State": "MA",
    "Zipcode": "02472"
  },
  {
    "Address1": "238 West Rock Street",
    "Address2": "#4",
    "City": "Fayetteville",
    "State": "AR",
    "Zipcode": "72701"
  },
  {
    "Address1": "1819 Q Street Southeast",
    "Address2": "",
    "City": "Washington",
    "State": "DC",
    "Zipcode": "20020"
  },
  {
    "Address1": "1261 Sioux Terrace",
    "Address2": "",
    "City": "Nashville",
    "State": "TN",
    "Zipcode": "37115"
  },
  {
    "Address1": "7002 Secrets Court",
    "Address2": "",
    "City": "Arvada",
    "State": "CO",
    "Zipcode": "80007"
  },
  {
    "Address1": "169 Avenida Drive",
    "Address2": "M",
    "City": "Berkeley",
    "State": "CA",
    "Zipcode": "94708"
  },
  {
    "Address1": "6095 Terry Lane",
    "Address2": "",
    "City": "Golden",
    "State": "CO",
    "Zipcode": "80403"
  },
  {
    "Address1": "3620 Colmar Drive",
    "Address2": "",
    "City": "Louisville",
    "State": "KY",
    "Zipcode": "40211"
  },
  {
    "Address1": "8820 Vaughn Road",
    "Address2": "",
    "City": "Montgomery",
    "State": "AL",
    "Zipcode": "36117"
  },
  {
    "Address1": "113 Hammarlee Road",
    "Address2": "",
    "City": "Glen Burnie",
    "State": "MD",
    "Zipcode": "21060"
  },
  {
    "Address1": "281 MacArthur Boulevard",
    "Address2": "",
    "City": "Oakland",
    "State": "CA",
    "Zipcode": "94610"
  },
  {
    "Address1": "8159 West 81st Avenue",
    "Address2": "",
    "City": "Arvada",
    "State": "CO",
    "Zipcode": "80005"
  },
  {
    "Address1": "512 North Center Avenue",
    "Address2": "",
    "City": "Panama City",
    "State": "FL",
    "Zipcode": "32401"
  },
  {
    "Address1": "4876 Norris Road",
    "Address2": "",
    "City": "Fremont",
    "State": "CA",
    "Zipcode": "94536"
  },
  {
    "Address1": "8378 Cole Street",
    "Address2": "",
    "City": "Arvada",
    "State": "CO",
    "Zipcode": "80005"
  },
  {
    "Address1": "2406 Brighton Drive",
    "Address2": "",
    "City": "Louisville",
    "State": "KY",
    "Zipcode": "40205"
  },
  {
    "Address1": "19 Heritage",
    "Address2": "",
    "City": "Oakland",
    "State": "CA",
    "Zipcode": "94605"
  },
  {
    "Address1": "6228 West Larkspur Drive",
    "Address2": "",
    "City": "Glendale",
    "State": "AZ",
    "Zipcode": "85304"
  },
  {
    "Address1": "2504 Longest Avenue",
    "Address2": "",
    "City": "Louisville",
    "State": "KY",
    "Zipcode": "40204"
  },
  {
    "Address1": "3 Mad Anthony Lane",
    "Address2": "",
    "City": "Savannah",
    "State": "GA",
    "Zipcode": "31411"
  },
  {
    "Address1": "2248 South Sutherland Drive",
    "Address2": "",
    "City": "Montgomery",
    "State": "AL",
    "Zipcode": "36116"
  },
  {
    "Address1": "330 Michell Court",
    "Address2": "",
    "City": "Livermore",
    "State": "CA",
    "Zipcode": "94551"
  },
  {
    "Address1": "6748 West San Juan Avenue",
    "Address2": "",
    "City": "Glendale",
    "State": "AZ",
    "Zipcode": "85303"
  },
  {
    "Address1": "1734 Tamarack Street Northwest",
    "Address2": "",
    "City": "Washington",
    "State": "DC",
    "Zipcode": "20012"
  },
  {
    "Address1": "915 Arkansas Avenue",
    "Address2": "",
    "City": "Lynn Haven",
    "State": "FL",
    "Zipcode": "32444"
  },
  {
    "Address1": "116 Queens Lane",
    "Address2": "",
    "City": "Nashville",
    "State": "TN",
    "Zipcode": "37218"
  },
  {
    "Address1": "8 Linden Circle",
    "Address2": "",
    "City": "Somerville",
    "State": "MA",
    "Zipcode": "02143"
  },
  {
    "Address1": "4 Chamois Court",
    "Address2": "",
    "City": "Pooler",
    "State": "GA",
    "Zipcode": "31322"
  },
  {
    "Address1": "6941 West 87th Way",
    "Address2": "",
    "City": "Arvada",
    "State": "CO",
    "Zipcode": "80003"
  },
  {
    "Address1": "354 North University Avenue",
    "Address2": "",
    "City": "Fayetteville",
    "State": "AR",
    "Zipcode": "72701"
  },
  {
    "Address1": "6145 East Castro Valley Boulevard",
    "Address2": "",
    "City": "Castro Valley",
    "State": "CA",
    "Zipcode": "94552"
  },
  {
    "Address1": "1401 Saint George Avenue",
    "Address2": "",
    "City": "Moore",
    "State": "OK",
    "Zipcode": "73160"
  },
  {
    "Address1": "1713 Arrow Cove Lane",
    "Address2": "",
    "City": "Annapolis",
    "State": "MD",
    "Zipcode": "21401"
  },
  {
    "Address1": "56 Gardner Street",
    "Address2": "",
    "City": "Manchester",
    "State": "CT",
    "Zipcode": "06040"
  },
  {
    "Address1": "327 Idlewylde Drive",
    "Address2": "#3",
    "City": "Louisville",
    "State": "KY",
    "Zipcode": "40206"
  },
  {
    "Address1": "18789 Crane Avenue",
    "Address2": "",
    "City": "Castro Valley",
    "State": "CA",
    "Zipcode": "94546"
  },
  {
    "Address1": "814 East 10th Court",
    "Address2": "",
    "City": "Panama City",
    "State": "FL",
    "Zipcode": "32401"
  },
  {
    "Address1": "6431 Shattuck Avenue",
    "Address2": "B",
    "City": "Oakland",
    "State": "CA",
    "Zipcode": "94609"
  },
  {
    "Address1": "4719 Bayou Bluff Trail",
    "Address2": "",
    "City": "Lynn Haven",
    "State": "FL",
    "Zipcode": "32444"
  },
  {
    "Address1": "24 Lambert Street",
    "Address2": "",
    "City": "Medford",
    "State": "MA",
    "Zipcode": "02155"
  },
  {
    "Address1": "1318 35th Street Northwest",
    "Address2": "",
    "City": "Washington",
    "State": "DC",
    "Zipcode": "20007"
  },
  {
    "Address1": "4807 North Grove Avenue",
    "Address2": "",
    "City": "Warr Acres",
    "State": "OK",
    "Zipcode": "73122"
  },
  {
    "Address1": "4408 Bonaparte Boulevard",
    "Address2": "",
    "City": "Midwest City",
    "State": "OK",
    "Zipcode": "73110"
  },
  {
    "Address1": "73 Twin Hills Drive",
    "Address2": "",
    "City": "Longmeadow",
    "State": "MA",
    "Zipcode": "01106"
  },
  {
    "Address1": "34 Harris Street",
    "Address2": "#6",
    "City": "Brookline",
    "State": "MA",
    "Zipcode": "02446"
  },
  {
    "Address1": "22352 North 67th Drive",
    "Address2": "",
    "City": "Glendale",
    "State": "AZ",
    "Zipcode": "85310"
  },
  {
    "Address1": "11522 Country Spring Court",
    "Address2": "",
    "City": "Cupertino",
    "State": "CA",
    "Zipcode": "95014"
  },
  {
    "Address1": "21 Soling Avenue",
    "Address2": "",
    "City": "Savannah",
    "State": "GA",
    "Zipcode": "31419"
  },
  {
    "Address1": "302 Mcmillin Street",
    "Address2": "",
    "City": "Nashville",
    "State": "TN",
    "Zipcode": "37203"
  },
  {
    "Address1": "129 Grant Street",
    "Address2": "",
    "City": "Redlands",
    "State": "CA",
    "Zipcode": "92373"
  },
  {
    "Address1": "3035 South Highway A1A",
    "Address2": "#3B",
    "City": "Melbourne Beach",
    "State": "FL",
    "Zipcode": "32951"
  },
  {
    "Address1": "1637 Acre Circle",
    "Address2": "",
    "City": "Panama City Beach",
    "State": "FL",
    "Zipcode": "32407"
  },
  {
    "Address1": "130 West Brown Road",
    "Address2": "",
    "City": "Mesa",
    "State": "AZ",
    "Zipcode": "85201"
  },
  {
    "Address1": "2632 Jackson Street East",
    "Address2": "",
    "City": "Carson",
    "State": "CA",
    "Zipcode": "90810"
  },
  {
    "Address1": "4503 North Council Road",
    "Address2": "",
    "City": "Bethany",
    "State": "OK",
    "Zipcode": "73008"
  },
  {
    "Address1": "119 Redwood Road",
    "Address2": "",
    "City": "Manchester",
    "State": "CT",
    "Zipcode": "06040"
  },
  {
    "Address1": "5721 Frank Hough Road",
    "Address2": "",
    "City": "Panama City",
    "State": "FL",
    "Zipcode": "32404"
  },
  {
    "Address1": "2917 Danzig Place",
    "Address2": "#102",
    "City": "Louisville",
    "State": "KY",
    "Zipcode": "40245"
  },
  {
    "Address1": "26563 Chisholm Court",
    "Address2": "",
    "City": "Hayward",
    "State": "CA",
    "Zipcode": "94544"
  },
  {
    "Address1": "4221 East Mission Boulevard",
    "Address2": "",
    "City": "Fayetteville",
    "State": "AR",
    "Zipcode": "72703"
  },
  {
    "Address1": "6021 Yarrow Street",
    "Address2": "#A1",
    "City": "Arvada",
    "State": "CO",
    "Zipcode": "80004"
  },
  {
    "Address1": "7102 North 43rd Avenue",
    "Address2": "#160",
    "City": "Glendale",
    "State": "AZ",
    "Zipcode": "85301"
  },
  {
    "Address1": "3386 Sudlersville South",
    "Address2": "",
    "City": "Laurel",
    "State": "MD",
    "Zipcode": "20724"
  },
  {
    "Address1": "6022 West Alice Avenue",
    "Address2": "#3",
    "City": "Glendale",
    "State": "AZ",
    "Zipcode": "85302"
  },
  {
    "Address1": "580 Hollow Wood Road",
    "Address2": "",
    "City": "Montgomery",
    "State": "AL",
    "Zipcode": "36109"
  },
  {
    "Address1": "435 East 5th Avenue",
    "Address2": "",
    "City": "Anchorage",
    "State": "AK",
    "Zipcode": "99501"
  },
  {
    "Address1": "6713 Holt Road",
    "Address2": "",
    "City": "Nashville",
    "State": "TN",
    "Zipcode": "37211"
  },
  {
    "Address1": "5605 North Terry Avenue",
    "Address2": "",
    "City": "Oklahoma City",
    "State": "OK",
    "Zipcode": "73111"
  },
  {
    "Address1": "412 West Ila Street",
    "Address2": "",
    "City": "Fayetteville",
    "State": "AR",
    "Zipcode": "72701"
  },
  {
    "Address1": "9403 Fairground Road",
    "Address2": "",
    "City": "Louisville",
    "State": "KY",
    "Zipcode": "40291"
  },
  {
    "Address1": "6049 Quail Street",
    "Address2": "",
    "City": "Arvada",
    "State": "CO",
    "Zipcode": "80004"
  },
  {
    "Address1": "17 Hillcrest Road",
    "Address2": "",
    "City": "Rutland",
    "State": "VT",
    "Zipcode": "05701"
  },
  {
    "Address1": "424 Callan Avenue",
    "Address2": "#216",
    "City": "San Leandro",
    "State": "CA",
    "Zipcode": "94577"
  },
  {
    "Address1": "105 Gilmore Street",
    "Address2": "",
    "City": "Glen Burnie",
    "State": "MD",
    "Zipcode": "21061"
  },
  {
    "Address1": "910 Arlington Terrace",
    "Address2": "",
    "City": "Fayetteville",
    "State": "AR",
    "Zipcode": "72701"
  },
  {
    "Address1": "2204 7th Street Road",
    "Address2": "#12",
    "City": "Louisville",
    "State": "KY",
    "Zipcode": "40208"
  },
  {
    "Address1": "11 North Vineyard Drive",
    "Address2": "",
    "City": "Pueblo West",
    "State": "CO",
    "Zipcode": "81007"
  },
  {
    "Address1": "3505 Albee Drive",
    "Address2": "",
    "City": "Nashville",
    "State": "TN",
    "Zipcode": "37076"
  },
  {
    "Address1": "689 Stableway Road",
    "Address2": "",
    "City": "Pike Road",
    "State": "AL",
    "Zipcode": "36064"
  },
  {
    "Address1": "102 East Cydnee Street",
    "Address2": "",
    "City": "Fayetteville",
    "State": "AR",
    "Zipcode": "72703"
  },
  {
    "Address1": "208 Towne Lake Way",
    "Address2": "",
    "City": "Pooler",
    "State": "GA",
    "Zipcode": "31322"
  },
  {
    "Address1": "2555 West 69th Court",
    "Address2": "",
    "City": "Anchorage",
    "State": "AK",
    "Zipcode": "99502"
  },
  {
    "Address1": "58 Rice Street Southwest",
    "Address2": "",
    "City": "Washington",
    "State": "DC",
    "Zipcode": "20032"
  },
  {
    "Address1": "2961 Vinson Road",
    "Address2": "",
    "City": "Montgomery",
    "State": "AL",
    "Zipcode": "36110"
  },
  {
    "Address1": "172 Chestnut Street",
    "Address2": "",
    "City": "Lynn",
    "State": "MA",
    "Zipcode": "01902"
  },
  {
    "Address1": "307 Meadowood Court",
    "Address2": "",
    "City": "Lynn Haven",
    "State": "FL",
    "Zipcode": "32444"
  },
  {
    "Address1": "403 Turkey Creek Road",
    "Address2": "",
    "City": "Mathews",
    "State": "AL",
    "Zipcode": "36052"
  },
  {
    "Address1": "11 Rosewood Lane",
    "Address2": "",
    "City": "Essex",
    "State": "VT",
    "Zipcode": "05452"
  },
  {
    "Address1": "102 Old Depot Road",
    "Address2": "#14",
    "City": "Farmington",
    "State": "AR",
    "Zipcode": "72730"
  },
  {
    "Address1": "9 Pierce Road",
    "Address2": "",
    "City": "Watertown",
    "State": "MA",
    "Zipcode": "02472"
  },
  {
    "Address1": "15254 North 52nd Avenue",
    "Address2": "",
    "City": "Glendale",
    "State": "AZ",
    "Zipcode": "85306"
  },
  {
    "Address1": "11140 West 60th Avenue",
    "Address2": "",
    "City": "Arvada",
    "State": "CO",
    "Zipcode": "80004"
  },
  {
    "Address1": "803 18th Avenue South",
    "Address2": "",
    "City": "Nashville",
    "State": "TN",
    "Zipcode": "37203"
  },
  {
    "Address1": "918 Cheryl Ann Circle",
    "Address2": "",
    "City": "Hayward",
    "State": "CA",
    "Zipcode": "94544"
  },
  {
    "Address1": "1328 Jenks Avenue",
    "Address2": "",
    "City": "Panama City",
    "State": "FL",
    "Zipcode": "32401"
  },
  {
    "Address1": "2201 Marks Mill Lane",
    "Address2": "",
    "City": "Fayetteville",
    "State": "AR",
    "Zipcode": "72703"
  },
  {
    "Address1": "12371 Atlanta Highway",
    "Address2": "",
    "City": "Montgomery",
    "State": "AL",
    "Zipcode": "36117"
  },
  {
    "Address1": "3437 Sommerville Drive",
    "Address2": "",
    "City": "Montgomery",
    "State": "AL",
    "Zipcode": "36111"
  },
  {
    "Address1": "829 Dunbarton Road",
    "Address2": "",
    "City": "Montgomery",
    "State": "AL",
    "Zipcode": "36117"
  },
  {
    "Address1": "8 Kozera Avenue",
    "Address2": "",
    "City": "Hadley",
    "State": "MA",
    "Zipcode": "01035"
  },
  {
    "Address1": "89 High Ledge Circle",
    "Address2": "",
    "City": "Manchester",
    "State": "CT",
    "Zipcode": "06040"
  },
  {
    "Address1": "35 Lakewood Circle South",
    "Address2": "",
    "City": "Manchester",
    "State": "CT",
    "Zipcode": "06040"
  },
  {
    "Address1": "2222 Martin Luther King Junior Boulevard",
    "Address2": "",
    "City": "Fayetteville",
    "State": "AR",
    "Zipcode": "72701"
  },
  {
    "Address1": "1720 Quacco Road",
    "Address2": "A",
    "City": "Pooler",
    "State": "GA",
    "Zipcode": "31322"
  },
  {
    "Address1": "116 Jourdan Street",
    "Address2": "",
    "City": "Hinesburg",
    "State": "VT",
    "Zipcode": "05461"
  },
  {
    "Address1": "2507 R Street Southeast",
    "Address2": "",
    "City": "Washington",
    "State": "DC",
    "Zipcode": "20020"
  },
  {
    "Address1": "4719 West Cochise Drive",
    "Address2": "",
    "City": "Glendale",
    "State": "AZ",
    "Zipcode": "85302"
  },
  {
    "Address1": "1838 Crofton Parkway",
    "Address2": "",
    "City": "Crofton",
    "State": "MD",
    "Zipcode": "21114"
  },
  {
    "Address1": "26 Seaman Circle",
    "Address2": "",
    "City": "Manchester",
    "State": "CT",
    "Zipcode": "06040"
  },
  {
    "Address1": "2572 Drake Street",
    "Address2": "",
    "City": "Montgomery",
    "State": "AL",
    "Zipcode": "36108"
  },
  {
    "Address1": "4231 Miramonte Way",
    "Address2": "",
    "City": "Union City",
    "State": "CA",
    "Zipcode": "94587"
  },
  {
    "Address1": "2508 Grant Avenue",
    "Address2": "",
    "City": "Panama City",
    "State": "FL",
    "Zipcode": "32405"
  },
  {
    "Address1": "6505 South Lagoon Drive",
    "Address2": "",
    "City": "Panama City Beach",
    "State": "FL",
    "Zipcode": "32408"
  },
  {
    "Address1": "2032 Gorgas Street",
    "Address2": "",
    "City": "Montgomery",
    "State": "AL",
    "Zipcode": "36106"
  },
  {
    "Address1": "1129 I Street",
    "Address2": "",
    "City": "Anchorage",
    "State": "AK",
    "Zipcode": "99501"
  },
  {
    "Address1": "5201 North Miller Avenue",
    "Address2": "",
    "City": "Oklahoma City",
    "State": "OK",
    "Zipcode": "73112"
  },
  {
    "Address1": "1987 Boxer Court",
    "Address2": "",
    "City": "San Lorenzo",
    "State": "CA",
    "Zipcode": "94580"
  },
  {
    "Address1": "3219 Lakeshore Drive",
    "Address2": "",
    "City": "Nashville",
    "State": "TN",
    "Zipcode": "37138"
  },
  {
    "Address1": "415 West 42nd Street",
    "Address2": "",
    "City": "Savannah",
    "State": "GA",
    "Zipcode": "31401"
  },
  {
    "Address1": "5792 Owl Hill Avenue",
    "Address2": "",
    "City": "Santa Rosa",
    "State": "CA",
    "Zipcode": "95409"
  },
  {
    "Address1": "6816 West 84th Circle",
    "Address2": "#42",
    "City": "Arvada",
    "State": "CO",
    "Zipcode": "80003"
  },
  {
    "Address1": "1900 West Virginia Avenue Northeast",
    "Address2": "",
    "City": "Washington",
    "State": "DC",
    "Zipcode": "20002"
  },
  {
    "Address1": "2936 State Avenue",
    "Address2": "",
    "City": "Panama City",
    "State": "FL",
    "Zipcode": "32405"
  },
  {
    "Address1": "2604 13th Street",
    "Address2": "",
    "City": "Savannah",
    "State": "GA",
    "Zipcode": "31408"
  },
  {
    "Address1": "10304 North 179th Drive",
    "Address2": "",
    "City": "Waddell",
    "State": "AZ",
    "Zipcode": "85355"
  },
  {
    "Address1": "8142 Mallard Shore Drive",
    "Address2": "",
    "City": "Laurel",
    "State": "MD",
    "Zipcode": "20724"
  },
  {
    "Address1": "653 Stratton Arlington Road",
    "Address2": "",
    "City": "Stratton",
    "State": "VT",
    "Zipcode": "05360"
  },
  {
    "Address1": "2414 Parker Street",
    "Address2": "#R 16",
    "City": "Berkeley",
    "State": "CA",
    "Zipcode": "94704"
  },
  {
    "Address1": "43 Westminster Street",
    "Address2": "",
    "City": "Pittsfield",
    "State": "MA",
    "Zipcode": "01201"
  },
  {
    "Address1": "422 C Street Northeast",
    "Address2": "",
    "City": "Washington",
    "State": "DC",
    "Zipcode": "20002"
  },
  {
    "Address1": "535 Saddlewood Lane",
    "Address2": "",
    "City": "Montgomery",
    "State": "AL",
    "Zipcode": "36109"
  },
  {
    "Address1": "7910 West Krall Street",
    "Address2": "",
    "City": "Glendale",
    "State": "AZ",
    "Zipcode": "85303"
  },
  {
    "Address1": "1600 20th Street Northwest",
    "Address2": "",
    "City": "Washington",
    "State": "DC",
    "Zipcode": "20009"
  },
  {
    "Address1": "1217 Bay Street",
    "Address2": "#318-A",
    "City": "Tybee Island",
    "State": "GA",
    "Zipcode": "31328"
  },
  {
    "Address1": "7645 Marshall Street",
    "Address2": "",
    "City": "Arvada",
    "State": "CO",
    "Zipcode": "80003"
  },
  {
    "Address1": "717 Joseph Avenue",
    "Address2": "",
    "City": "Nashville",
    "State": "TN",
    "Zipcode": "37207"
  },
  {
    "Address1": "2106 Standard Avenue",
    "Address2": "",
    "City": "Louisville",
    "State": "KY",
    "Zipcode": "40210"
  },
  {
    "Address1": "316 20th Street Northeast",
    "Address2": "",
    "City": "Washington",
    "State": "DC",
    "Zipcode": "20002"
  },
  {
    "Address1": "227 West Montgomery Cross Road",
    "Address2": "#736",
    "City": "Savannah",
    "State": "GA",
    "Zipcode": "31406"
  },
  {
    "Address1": "310 12th Avenue",
    "Address2": "",
    "City": "Santa Cruz",
    "State": "CA",
    "Zipcode": "95062"
  },
  {
    "Address1": "2685 California Street",
    "Address2": "#APT 305",
    "City": "Mountain View",
    "State": "CA",
    "Zipcode": "94040"
  },
  {
    "Address1": "6460 Vermont 113",
    "Address2": "",
    "City": "Vershire",
    "State": "VT",
    "Zipcode": "05079"
  },
  {
    "Address1": "8404 South Villa Avenue",
    "Address2": "",
    "City": "Oklahoma City",
    "State": "OK",
    "Zipcode": "73159"
  },
  {
    "Address1": "7030 West Krall Street",
    "Address2": "",
    "City": "Glendale",
    "State": "AZ",
    "Zipcode": "85303"
  },
  {
    "Address1": "189 Dalton Avenue",
    "Address2": "",
    "City": "Pittsfield",
    "State": "MA",
    "Zipcode": "01201"
  },
  {
    "Address1": "2455 Manchester Drive",
    "Address2": "",
    "City": "The Village",
    "State": "OK",
    "Zipcode": "73120"
  },
  {
    "Address1": "2405 230th Street",
    "Address2": "",
    "City": "Pasadena",
    "State": "MD",
    "Zipcode": "21122"
  },
  {
    "Address1": "589 East Main Street",
    "Address2": "",
    "City": "Newport",
    "State": "VT",
    "Zipcode": "05855"
  },
  {
    "Address1": "1520 H Street Northwest",
    "Address2": "",
    "City": "Washington",
    "State": "DC",
    "Zipcode": "20006"
  },
  {
    "Address1": "4603 Grant Street Northeast",
    "Address2": "",
    "City": "Washington",
    "State": "DC",
    "Zipcode": "20019"
  },
  {
    "Address1": "171 Brickhill Circle",
    "Address2": "",
    "City": "Pooler",
    "State": "GA",
    "Zipcode": "31322"
  },
  {
    "Address1": "607 North 46th Avenue",
    "Address2": "",
    "City": "Fayetteville",
    "State": "AR",
    "Zipcode": "72704"
  },
  {
    "Address1": "9134 Brook Park Drive",
    "Address2": "",
    "City": "Montgomery",
    "State": "AL",
    "Zipcode": "36117"
  },
  {
    "Address1": "2134 West Mills Drive",
    "Address2": "",
    "City": "Orange",
    "State": "CA",
    "Zipcode": "92868"
  },
  {
    "Address1": "2 Cockle Shell Road",
    "Address2": "",
    "City": "Savannah",
    "State": "GA",
    "Zipcode": "31419"
  },
  {
    "Address1": "1431 King George Boulevard",
    "Address2": "#21-C",
    "City": "Savannah",
    "State": "GA",
    "Zipcode": "31419"
  },
  {
    "Address1": "1804 Calhoun Avenue",
    "Address2": "",
    "City": "Panama City",
    "State": "FL",
    "Zipcode": "32405"
  },
  {
    "Address1": "23 Florida Avenue Northeast",
    "Address2": "",
    "City": "Washington",
    "State": "DC",
    "Zipcode": "20002"
  },
  {
    "Address1": "5630 Silverado Way",
    "Address2": "#STE A8",
    "City": "Anchorage",
    "State": "AK",
    "Zipcode": "99518"
  },
  {
    "Address1": "11300 Lillian Lane",
    "Address2": "",
    "City": "Anchorage",
    "State": "AK",
    "Zipcode": "99515"
  },
  {
    "Address1": "2209 East Manor Drive",
    "Address2": "",
    "City": "Fayetteville",
    "State": "AR",
    "Zipcode": "72701"
  },
  {
    "Address1": "8325 Northwest 19th Street",
    "Address2": "",
    "City": "Oklahoma City",
    "State": "OK",
    "Zipcode": "73127"
  },
  {
    "Address1": "6925 Lariat Lane",
    "Address2": "",
    "City": "Castro Valley",
    "State": "CA",
    "Zipcode": "94552"
  },
  {
    "Address1": "6721 Boundary Run",
    "Address2": "",
    "City": "Nashville",
    "State": "TN",
    "Zipcode": "37221"
  },
  {
    "Address1": "1700 William E Summers III Avenue",
    "Address2": "#201",
    "City": "Louisville",
    "State": "KY",
    "Zipcode": "40211"
  },
  {
    "Address1": "14 6th Street",
    "Address2": "#1",
    "City": "Medford",
    "State": "MA",
    "Zipcode": "02155"
  },
  {
    "Address1": "11865 West 74th Avenue",
    "Address2": "",
    "City": "Arvada",
    "State": "CO",
    "Zipcode": "80005"
  },
  {
    "Address1": "912 Countryside Lane",
    "Address2": "",
    "City": "Montgomery",
    "State": "AL",
    "Zipcode": "36117"
  },
  {
    "Address1": "6080 Frontier Lane",
    "Address2": "",
    "City": "Nashville",
    "State": "TN",
    "Zipcode": "37211"
  },
  {
    "Address1": "1124 Bluewillow Court",
    "Address2": "",
    "City": "Nashville",
    "State": "TN",
    "Zipcode": "37013"
  },
  {
    "Address1": "17722 North 79th Avenue",
    "Address2": "#1135",
    "City": "Glendale",
    "State": "AZ",
    "Zipcode": "85308"
  },
  {
    "Address1": "6 Oak Street",
    "Address2": "",
    "City": "Town of Rockingham",
    "State": "VT",
    "Zipcode": "05101"
  },
  {
    "Address1": "1537 Northwest 123rd Street",
    "Address2": "",
    "City": "Oklahoma City",
    "State": "OK",
    "Zipcode": "73120"
  },
  {
    "Address1": "10001 Pheasant Lane",
    "Address2": "",
    "City": "Oklahoma City",
    "State": "OK",
    "Zipcode": "73162"
  },
  {
    "Address1": "10340 West 62nd Place",
    "Address2": "",
    "City": "Arvada",
    "State": "CO",
    "Zipcode": "80004"
  },
  {
    "Address1": "52 Oleary Drive",
    "Address2": "",
    "City": "Manchester",
    "State": "CT",
    "Zipcode": "06040"
  },
  {
    "Address1": "15082 North 59th Avenue",
    "Address2": "#111",
    "City": "Glendale",
    "State": "AZ",
    "Zipcode": "85306"
  },
  {
    "Address1": "7047 Vinson Road",
    "Address2": "",
    "City": "Panama City",
    "State": "FL",
    "Zipcode": "32413"
  },
  {
    "Address1": "200 Edson Road",
    "Address2": "",
    "City": "Windham",
    "State": "VT",
    "Zipcode": "05359"
  },
  {
    "Address1": "150 Manistee Drive",
    "Address2": "",
    "City": "Panama City Beach",
    "State": "FL",
    "Zipcode": "32413"
  },
  {
    "Address1": "2335 Orchard View Lane",
    "Address2": "",
    "City": "Escondido",
    "State": "CA",
    "Zipcode": "92027"
  },
  {
    "Address1": "65 Clark Street",
    "Address2": "#2",
    "City": "Newton",
    "State": "MA",
    "Zipcode": "02459"
  },
  {
    "Address1": "18318 Pioneer Drive",
    "Address2": "",
    "City": "Anchorage",
    "State": "AK",
    "Zipcode": "99577"
  },
  {
    "Address1": "110 Elmwood Avenue",
    "Address2": "",
    "City": "Barre",
    "State": "VT",
    "Zipcode": "05641"
  },
  {
    "Address1": "4800 Huffman Road",
    "Address2": "",
    "City": "Anchorage",
    "State": "AK",
    "Zipcode": "99516"
  },
  {
    "Address1": "8219 Minor Lane",
    "Address2": "#9",
    "City": "Louisville",
    "State": "KY",
    "Zipcode": "40219"
  },
  {
    "Address1": "10129 Spring Gate Drive",
    "Address2": "",
    "City": "Louisville",
    "State": "KY",
    "Zipcode": "40241"
  },
  {
    "Address1": "65 Arcellia Drive",
    "Address2": "",
    "City": "Manchester",
    "State": "CT",
    "Zipcode": "06042"
  },
  {
    "Address1": "12460 West Solano Drive",
    "Address2": "",
    "City": "Litchfield Park",
    "State": "AZ",
    "Zipcode": "85340"
  },
  {
    "Address1": "618 Watts Street",
    "Address2": "",
    "City": "Montgomery",
    "State": "AL",
    "Zipcode": "36104"
  },
  {
    "Address1": "5805 Armada Drive",
    "Address2": "",
    "City": "Carlsbad",
    "State": "CA",
    "Zipcode": "92008"
  },
  {
    "Address1": "1644 Queenstown Road",
    "Address2": "",
    "City": "Nichols Hills",
    "State": "OK",
    "Zipcode": "73116"
  },
  {
    "Address1": "143 Main Street",
    "Address2": "",
    "City": "Manchester",
    "State": "CT",
    "Zipcode": "06042"
  },
  {
    "Address1": "226 Tranquility Lane",
    "Address2": "",
    "City": "Saint Albans Town",
    "State": "VT",
    "Zipcode": "05488"
  },
  {
    "Address1": "831 21st Street Northeast",
    "Address2": "",
    "City": "Washington",
    "State": "DC",
    "Zipcode": "20002"
  },
  {
    "Address1": "22825 Paseo Place",
    "Address2": "",
    "City": "Hayward",
    "State": "CA",
    "Zipcode": "94541"
  },
  {
    "Address1": "2902 Flint Street",
    "Address2": "",
    "City": "Union City",
    "State": "CA",
    "Zipcode": "94587"
  },
  {
    "Address1": "919 Windsor Avenue",
    "Address2": "",
    "City": "Annapolis",
    "State": "MD",
    "Zipcode": "21403"
  },
  {
    "Address1": "6041 North 72nd Lane",
    "Address2": "",
    "City": "Glendale",
    "State": "AZ",
    "Zipcode": "85303"
  },
  {
    "Address1": "163 Highwood Drive",
    "Address2": "",
    "City": "Manchester",
    "State": "CT",
    "Zipcode": "06040"
  },
  {
    "Address1": "1334 East 14th Avenue",
    "Address2": "#APT 000004",
    "City": "Anchorage",
    "State": "AK",
    "Zipcode": "99501"
  },
  {
    "Address1": "223 Goose Pond Road",
    "Address2": "",
    "City": "Fairfax",
    "State": "VT",
    "Zipcode": "05454"
  },
  {
    "Address1": "1021 North Center Avenue",
    "Address2": "",
    "City": "Panama City",
    "State": "FL",
    "Zipcode": "32401"
  },
  {
    "Address1": "1559 Alabama Avenue Southeast",
    "Address2": "",
    "City": "Washington",
    "State": "DC",
    "Zipcode": "20032"
  },
  {
    "Address1": "1238 Roanwood Way",
    "Address2": "",
    "City": "Concord",
    "State": "CA",
    "Zipcode": "94521"
  },
  {
    "Address1": "2068 Happy Lane",
    "Address2": "",
    "City": "Crofton",
    "State": "MD",
    "Zipcode": "21114"
  },
  {
    "Address1": "5378 Allison Street",
    "Address2": "#102",
    "City": "Arvada",
    "State": "CO",
    "Zipcode": "80002"
  },
  {
    "Address1": "4604 Virginia Loop Road",
    "Address2": "",
    "City": "Montgomery",
    "State": "AL",
    "Zipcode": "36116"
  },
  {
    "Address1": "7711 North 51st Avenue",
    "Address2": "#1180",
    "City": "Glendale",
    "State": "AZ",
    "Zipcode": "85301"
  },
  {
    "Address1": "343 Daman Drive",
    "Address2": "",
    "City": "Montgomery",
    "State": "AL",
    "Zipcode": "36108"
  },
  {
    "Address1": "3623 Chateau Lane",
    "Address2": "",
    "City": "Louisville",
    "State": "KY",
    "Zipcode": "40219"
  },
  {
    "Address1": "2619 North Quality Lane",
    "Address2": "#315",
    "City": "Fayetteville",
    "State": "AR",
    "Zipcode": "72703"
  },
  {
    "Address1": "5334 West Northern Avenue",
    "Address2": "#327",
    "City": "Glendale",
    "State": "AZ",
    "Zipcode": "85301"
  },
  {
    "Address1": "3835 Oakes Drive",
    "Address2": "",
    "City": "Hayward",
    "State": "CA",
    "Zipcode": "94542"
  },
  {
    "Address1": "295 Townes Drive",
    "Address2": "",
    "City": "Nashville",
    "State": "TN",
    "Zipcode": "37211"
  },
  {
    "Address1": "125 13th Street Northeast",
    "Address2": "",
    "City": "Washington",
    "State": "DC",
    "Zipcode": "20002"
  },
  {
    "Address1": "7308 Northwest 119th Street",
    "Address2": "",
    "City": "Oklahoma City",
    "State": "OK",
    "Zipcode": "73162"
  },
  {
    "Address1": "1911 East 58th Avenue",
    "Address2": "",
    "City": "Anchorage",
    "State": "AK",
    "Zipcode": "99507"
  },
  {
    "Address1": "22649 McManus Drive",
    "Address2": "",
    "City": "Anchorage",
    "State": "AK",
    "Zipcode": "99567"
  },
  {
    "Address1": "4617 East 3rd Street",
    "Address2": "",
    "City": "Panama City",
    "State": "FL",
    "Zipcode": "32404"
  },
  {
    "Address1": "6436 Stoney Point Road",
    "Address2": "",
    "City": "Panama City",
    "State": "FL",
    "Zipcode": "32404"
  },
  {
    "Address1": "2577 Rhode Island Avenue Northeast",
    "Address2": "",
    "City": "Washington",
    "State": "DC",
    "Zipcode": "20018"
  },
  {
    "Address1": "44 Campfield Road",
    "Address2": "",
    "City": "Manchester",
    "State": "CT",
    "Zipcode": "06040"
  },
  {
    "Address1": "7132 South Villa Avenue",
    "Address2": "",
    "City": "Oklahoma City",
    "State": "OK",
    "Zipcode": "73159"
  },
  {
    "Address1": "107 West Canton Circle",
    "Address2": "",
    "City": "Springfield",
    "State": "MA",
    "Zipcode": "01104"
  },
  {
    "Address1": "14358 West 88th Place",
    "Address2": "C",
    "City": "Arvada",
    "State": "CO",
    "Zipcode": "80005"
  },
  {
    "Address1": "2100 Sandy Creek Trail",
    "Address2": "",
    "City": "Edmond",
    "State": "OK",
    "Zipcode": "73013"
  },
  {
    "Address1": "6404 West 82nd Drive",
    "Address2": "",
    "City": "Arvada",
    "State": "CO",
    "Zipcode": "80003"
  },
  {
    "Address1": "1609 Porter Avenue",
    "Address2": "",
    "City": "Nashville",
    "State": "TN",
    "Zipcode": "37206"
  },
  {
    "Address1": "8421 Thomas Drive",
    "Address2": "#4",
    "City": "Panama City",
    "State": "FL",
    "Zipcode": "32408"
  },
  {
    "Address1": "116 Frost Park",
    "Address2": "",
    "City": "Hartford",
    "State": "VT",
    "Zipcode": "05001"
  },
  {
    "Address1": "132 Tensaw Road",
    "Address2": "",
    "City": "Montgomery",
    "State": "AL",
    "Zipcode": "36117"
  },
  {
    "Address1": "3147 West Old Farmington Road",
    "Address2": "",
    "City": "Fayetteville",
    "State": "AR",
    "Zipcode": "72704"
  },
  {
    "Address1": "3538 Mendenhall Court",
    "Address2": "",
    "City": "Pleasanton",
    "State": "CA",
    "Zipcode": "94588"
  },
  {
    "Address1": "1623 Mines Road",
    "Address2": "",
    "City": "Lowell",
    "State": "VT",
    "Zipcode": "05847"
  },
  {
    "Address1": "99 Pond Avenue",
    "Address2": "#606",
    "City": "Brookline",
    "State": "MA",
    "Zipcode": "02445"
  },
  {
    "Address1": "557 West Willoughby Road",
    "Address2": "",
    "City": "Fayetteville",
    "State": "AR",
    "Zipcode": "72701"
  },
  {
    "Address1": "309 Brooke Court",
    "Address2": "",
    "City": "Panama City",
    "State": "FL",
    "Zipcode": "32404"
  },
  {
    "Address1": "4696 Bull Run Road",
    "Address2": "",
    "City": "Ashland City",
    "State": "TN",
    "Zipcode": "37015"
  },
  {
    "Address1": "18330 North 79th Avenue",
    "Address2": "#3155",
    "City": "Glendale",
    "State": "AZ",
    "Zipcode": "85308"
  },
  {
    "Address1": "5601 West Missouri Avenue",
    "Address2": "#165",
    "City": "Glendale",
    "State": "AZ",
    "Zipcode": "85301"
  },
  {
    "Address1": "2903 West 31st Avenue",
    "Address2": "#APT 000002",
    "City": "Anchorage",
    "State": "AK",
    "Zipcode": "99517"
  },
  {
    "Address1": "2611 Bluefield Avenue",
    "Address2": "",
    "City": "Nashville",
    "State": "TN",
    "Zipcode": "37214"
  },
  {
    "Address1": "203 East Gwinnett Street",
    "Address2": "",
    "City": "Savannah",
    "State": "GA",
    "Zipcode": "31401"
  },
  {
    "Address1": "3517 S Street Northwest",
    "Address2": "",
    "City": "Washington",
    "State": "DC",
    "Zipcode": "20007"
  },
  {
    "Address1": "1123 Ardee Avenue",
    "Address2": "",
    "City": "Nashville",
    "State": "TN",
    "Zipcode": "37216"
  },
  {
    "Address1": "3811 W Street Southeast",
    "Address2": "",
    "City": "Washington",
    "State": "DC",
    "Zipcode": "20020"
  },
  {
    "Address1": "2130 Loren Circle",
    "Address2": "",
    "City": "Fayetteville",
    "State": "AR",
    "Zipcode": "72701"
  },
  {
    "Address1": "4 Orchard Street",
    "Address2": "",
    "City": "Manchester",
    "State": "CT",
    "Zipcode": "06040"
  },
  {
    "Address1": "4755 Coventry Road",
    "Address2": "",
    "City": "Montgomery",
    "State": "AL",
    "Zipcode": "36116"
  },
  {
    "Address1": "1806 Boscobel Street",
    "Address2": "",
    "City": "Nashville",
    "State": "TN",
    "Zipcode": "37206"
  },
  {
    "Address1": "7034 West John Garrison Road",
    "Address2": "",
    "City": "Fayetteville",
    "State": "AR",
    "Zipcode": "72704"
  },
  {
    "Address1": "233 Juniper Drive",
    "Address2": "",
    "City": "South Burlington",
    "State": "VT",
    "Zipcode": "05403"
  },
  {
    "Address1": "1831 Frankford Avenue",
    "Address2": "",
    "City": "Panama City",
    "State": "FL",
    "Zipcode": "32405"
  },
  {
    "Address1": "4924 West 65th Avenue",
    "Address2": "",
    "City": "Arvada",
    "State": "CO",
    "Zipcode": "80003"
  },
  {
    "Address1": "7095 Gladiola Street",
    "Address2": "",
    "City": "Arvada",
    "State": "CO",
    "Zipcode": "80004"
  },
  {
    "Address1": "7564 Moore Court",
    "Address2": "",
    "City": "Arvada",
    "State": "CO",
    "Zipcode": "80005"
  },
  {
    "Address1": "8442 Everett Way",
    "Address2": "A",
    "City": "Arvada",
    "State": "CO",
    "Zipcode": "80005"
  },
  {
    "Address1": "1330 West 82nd Avenue",
    "Address2": "",
    "City": "Anchorage",
    "State": "AK",
    "Zipcode": "99518"
  },
  {
    "Address1": "4907 Roger Drive",
    "Address2": "",
    "City": "Anchorage",
    "State": "AK",
    "Zipcode": "99507"
  },
  {
    "Address1": "123 Blossom Road",
    "Address2": "",
    "City": "Westport",
    "State": "MA",
    "Zipcode": "02790"
  },
  {
    "Address1": "915 Hargrove Street",
    "Address2": "",
    "City": "Ardmore",
    "State": "OK",
    "Zipcode": "73401"
  },
  {
    "Address1": "1983 Reidsville Street",
    "Address2": "",
    "City": "Annapolis",
    "State": "MD",
    "Zipcode": "21401"
  },
  {
    "Address1": "12403 Deerfield Road",
    "Address2": "",
    "City": "Savannah",
    "State": "GA",
    "Zipcode": "31419"
  },
  {
    "Address1": "1011 Devon Drive",
    "Address2": "",
    "City": "Hayward",
    "State": "CA",
    "Zipcode": "94542"
  },
  {
    "Address1": "5222 West Laurie Lane",
    "Address2": "",
    "City": "Glendale",
    "State": "AZ",
    "Zipcode": "85302"
  },
  {
    "Address1": "35 Pilgrim Lane",
    "Address2": "",
    "City": "Manchester",
    "State": "CT",
    "Zipcode": "06040"
  },
  {
    "Address1": "2728 Hale Avenue",
    "Address2": "",
    "City": "Louisville",
    "State": "KY",
    "Zipcode": "40211"
  },
  {
    "Address1": "65 Lowry Road",
    "Address2": "",
    "City": "Falmouth",
    "State": "MA",
    "Zipcode": "02540"
  },
  {
    "Address1": "302 Depot Road",
    "Address2": "",
    "City": "Boxborough",
    "State": "MA",
    "Zipcode": "01719"
  },
  {
    "Address1": "1402 Maggies Way",
    "Address2": "",
    "City": "Waterbury Center",
    "State": "VT",
    "Zipcode": "05677"
  },
  {
    "Address1": "81 Lyness Street",
    "Address2": "",
    "City": "Manchester",
    "State": "CT",
    "Zipcode": "06040"
  },
  {
    "Address1": "6518 Dolphin Court",
    "Address2": "",
    "City": "Glen Burnie",
    "State": "MD",
    "Zipcode": "21061"
  },
  {
    "Address1": "1842 West Park Place",
    "Address2": "",
    "City": "Oklahoma City",
    "State": "OK",
    "Zipcode": "73106"
  },
  {
    "Address1": "1 Pond View Road",
    "Address2": "",
    "City": "Proctor",
    "State": "VT",
    "Zipcode": "05765"
  },
  {
    "Address1": "1340 5th Street Northwest",
    "Address2": "",
    "City": "Washington",
    "State": "DC",
    "Zipcode": "20001"
  },
  {
    "Address1": "6000 Parker Drive",
    "Address2": "",
    "City": "Deale",
    "State": "MD",
    "Zipcode": "20751"
  },
  {
    "Address1": "822 Bowden Street",
    "Address2": "",
    "City": "Savannah",
    "State": "GA",
    "Zipcode": "31415"
  },
  {
    "Address1": "1710 East Harold Street",
    "Address2": "",
    "City": "Fayetteville",
    "State": "AR",
    "Zipcode": "72703"
  },
  {
    "Address1": "1518 Jenks Avenue",
    "Address2": "",
    "City": "Panama City",
    "State": "FL",
    "Zipcode": "32405"
  },
  {
    "Address1": "814 South Pickard Avenue",
    "Address2": "",
    "City": "Norman",
    "State": "OK",
    "Zipcode": "73069"
  },
  {
    "Address1": "100 Fenwick Village Drive",
    "Address2": "",
    "City": "Savannah",
    "State": "GA",
    "Zipcode": "31419"
  },
  {
    "Address1": "218 Middle Street",
    "Address2": "",
    "City": "Brighton",
    "State": "VT",
    "Zipcode": "05846"
  },
  {
    "Address1": "5470 Atlanta Highway",
    "Address2": "",
    "City": "Montgomery",
    "State": "AL",
    "Zipcode": "36109"
  },
  {
    "Address1": "43 Main Street",
    "Address2": "",
    "City": "Essex",
    "State": "VT",
    "Zipcode": "05452"
  },
  {
    "Address1": "804 East 7th Court",
    "Address2": "",
    "City": "Panama City",
    "State": "FL",
    "Zipcode": "32401"
  },
  {
    "Address1": "1709 Queensbury Road",
    "Address2": "",
    "City": "Moore",
    "State": "OK",
    "Zipcode": "73160"
  },
  {
    "Address1": "646 Clinton Street",
    "Address2": "",
    "City": "Montgomery",
    "State": "AL",
    "Zipcode": "36108"
  },
  {
    "Address1": "708 Pine Drift Drive",
    "Address2": "",
    "City": "Odenton",
    "State": "MD",
    "Zipcode": "21113"
  },
  {
    "Address1": "5104 West Tierra Buena Lane",
    "Address2": "",
    "City": "Glendale",
    "State": "AZ",
    "Zipcode": "85306"
  },
  {
    "Address1": "1234 Carmel Street",
    "Address2": "",
    "City": "Madera",
    "State": "CA",
    "Zipcode": "93638"
  },
  {
    "Address1": "1753 Zion Road",
    "Address2": "#E33",
    "City": "Fayetteville",
    "State": "AR",
    "Zipcode": "72703"
  },
  {
    "Address1": "22538 6th Street",
    "Address2": "",
    "City": "Hayward",
    "State": "CA",
    "Zipcode": "94541"
  },
  {
    "Address1": "415 Lullwater Drive",
    "Address2": "",
    "City": "Panama City Beach",
    "State": "FL",
    "Zipcode": "32413"
  },
  {
    "Address1": "219 Bidwell Street",
    "Address2": "",
    "City": "Manchester",
    "State": "CT",
    "Zipcode": "06040"
  },
  {
    "Address1": "4500 Margalo Avenue",
    "Address2": "",
    "City": "Bakersfield",
    "State": "CA",
    "Zipcode": "93313"
  },
  {
    "Address1": "8380 West 67th Avenue",
    "Address2": "",
    "City": "Arvada",
    "State": "CO",
    "Zipcode": "80004"
  },
  {
    "Address1": "2334 Nantucket Drive",
    "Address2": "",
    "City": "Crofton",
    "State": "MD",
    "Zipcode": "21114"
  },
  {
    "Address1": "720 East Muhammad Ali Boulevard",
    "Address2": "",
    "City": "Louisville",
    "State": "KY",
    "Zipcode": "40202"
  },
  {
    "Address1": "12022 Town Park Circle",
    "Address2": "",
    "City": "Anchorage",
    "State": "AK",
    "Zipcode": "99577"
  },
  {
    "Address1": "2305 Ranchland Drive",
    "Address2": "",
    "City": "Savannah",
    "State": "GA",
    "Zipcode": "31404"
  },
  {
    "Address1": "1656 Newton Street Northwest",
    "Address2": "",
    "City": "Washington",
    "State": "DC",
    "Zipcode": "20010"
  },
  {
    "Address1": "91 85th Avenue",
    "Address2": "",
    "City": "Fayetteville",
    "State": "AR",
    "Zipcode": "72704"
  },
  {
    "Address1": "228 Central Street",
    "Address2": "",
    "City": "Milford",
    "State": "MA",
    "Zipcode": "01757"
  },
  {
    "Address1": "20 Masters Way",
    "Address2": "",
    "City": "Manchester",
    "State": "CT",
    "Zipcode": "06040"
  },
  {
    "Address1": "5396 North Reese Avenue",
    "Address2": "",
    "City": "Fresno",
    "State": "CA",
    "Zipcode": "93722"
  },
  {
    "Address1": "28 Wilfred Road",
    "Address2": "",
    "City": "Manchester",
    "State": "CT",
    "Zipcode": "06040"
  },
  {
    "Address1": "200 Pheasant Avenue",
    "Address2": "#103",
    "City": "Louisville",
    "State": "KY",
    "Zipcode": "40118"
  },
  {
    "Address1": "1650 Garland Avenue",
    "Address2": "",
    "City": "Fayetteville",
    "State": "AR",
    "Zipcode": "72703"
  },
  {
    "Address1": "4600 Ritchie Highway",
    "Address2": "",
    "City": "Baltimore",
    "State": "MD",
    "Zipcode": "21225"
  },
  {
    "Address1": "733 East DeRenne Avenue",
    "Address2": "",
    "City": "Savannah",
    "State": "GA",
    "Zipcode": "31405"
  },
  {
    "Address1": "8349 West Stella Way",
    "Address2": "",
    "City": "Glendale",
    "State": "AZ",
    "Zipcode": "85305"
  },
  {
    "Address1": "33 Pond Avenue",
    "Address2": "#804",
    "City": "Brookline",
    "State": "MA",
    "Zipcode": "02445"
  },
  {
    "Address1": "9 Kimball Court",
    "Address2": "#107",
    "City": "Burlington",
    "State": "MA",
    "Zipcode": "01803"
  },
  {
    "Address1": "2433 Southwest 36th Street",
    "Address2": "",
    "City": "Oklahoma City",
    "State": "OK",
    "Zipcode": "73109"
  },
  {
    "Address1": "4607 Artelia Drive",
    "Address2": "",
    "City": "Nashville",
    "State": "TN",
    "Zipcode": "37013"
  },
  {
    "Address1": "212 Ambleside Drive",
    "Address2": "",
    "City": "Severna Park",
    "State": "MD",
    "Zipcode": "21146"
  },
  {
    "Address1": "8757 Lamar Circle",
    "Address2": "",
    "City": "Arvada",
    "State": "CO",
    "Zipcode": "80003"
  },
  {
    "Address1": "130 Carolina Cherry Circle",
    "Address2": "",
    "City": "Pooler",
    "State": "GA",
    "Zipcode": "31322"
  },
  {
    "Address1": "7804 Abercorn Street",
    "Address2": "#11",
    "City": "Savannah",
    "State": "GA",
    "Zipcode": "31406"
  },
  {
    "Address1": "12870 Old Seward Highway",
    "Address2": "#STE 000105",
    "City": "Anchorage",
    "State": "AK",
    "Zipcode": "99515"
  },
  {
    "Address1": "8133 Meadowgreen Place",
    "Address2": "",
    "City": "Louisville",
    "State": "KY",
    "Zipcode": "40299"
  },
  {
    "Address1": "5 Meadow Lane",
    "Address2": "",
    "City": "Rutland",
    "State": "VT",
    "Zipcode": "05701"
  },
  {
    "Address1": "562 South Pierremont Drive",
    "Address2": "",
    "City": "Fayetteville",
    "State": "AR",
    "Zipcode": "72701"
  },
  {
    "Address1": "1219 Carleton Street",
    "Address2": "M",
    "City": "Berkeley",
    "State": "CA",
    "Zipcode": "94702"
  },
  {
    "Address1": "1403 Boulder Court",
    "Address2": "",
    "City": "Hanover",
    "State": "MD",
    "Zipcode": "21076"
  },
  {
    "Address1": "122 Coral Drive",
    "Address2": "",
    "City": "Panama City Beach",
    "State": "FL",
    "Zipcode": "32413"
  },
  {
    "Address1": "1404 James Way",
    "Address2": "",
    "City": "Edgewater",
    "State": "MD",
    "Zipcode": "21037"
  },
  {
    "Address1": "4300 Woodley Square",
    "Address2": "",
    "City": "Montgomery",
    "State": "AL",
    "Zipcode": "36116"
  },
  {
    "Address1": "422 Richmond Street",
    "Address2": "",
    "City": "El Cerrito",
    "State": "CA",
    "Zipcode": "94530"
  },
  {
    "Address1": "222 Plymouth Street",
    "Address2": "A",
    "City": "Middleborough",
    "State": "MA",
    "Zipcode": "02346"
  },
  {
    "Address1": "451 East Street",
    "Address2": "",
    "City": "Huntington",
    "State": "VT",
    "Zipcode": "05462"
  },
  {
    "Address1": "9209 Eupora Court",
    "Address2": "",
    "City": "Jeffersontown",
    "State": "KY",
    "Zipcode": "40299"
  },
  {
    "Address1": "4 Conti Circle",
    "Address2": "",
    "City": "Barre",
    "State": "VT",
    "Zipcode": "05641"
  },
  {
    "Address1": "5264 Shafter Avenue",
    "Address2": "",
    "City": "Oakland",
    "State": "CA",
    "Zipcode": "94618"
  },
  {
    "Address1": "1630 Eton Way",
    "Address2": "",
    "City": "Crofton",
    "State": "MD",
    "Zipcode": "21114"
  },
  {
    "Address1": "5244 West Port Au Prince Lane",
    "Address2": "",
    "City": "Glendale",
    "State": "AZ",
    "Zipcode": "85306"
  },
  {
    "Address1": "1835 Pointer Lane",
    "Address2": "",
    "City": "Fayetteville",
    "State": "AR",
    "Zipcode": "72701"
  },
  {
    "Address1": "107 Laurel Green Court",
    "Address2": "",
    "City": "Savannah",
    "State": "GA",
    "Zipcode": "31419"
  },
  {
    "Address1": "7250 Urban Drive",
    "Address2": "",
    "City": "Arvada",
    "State": "CO",
    "Zipcode": "80005"
  },
  {
    "Address1": "12 Kane Road",
    "Address2": "",
    "City": "Manchester",
    "State": "CT",
    "Zipcode": "06040"
  },
  {
    "Address1": "4132 Northwest 57th Street",
    "Address2": "",
    "City": "Oklahoma City",
    "State": "OK",
    "Zipcode": "73112"
  },
  {
    "Address1": "10774 West 54th Lane",
    "Address2": "",
    "City": "Arvada",
    "State": "CO",
    "Zipcode": "80002"
  },
  {
    "Address1": "6729 North 54th Avenue",
    "Address2": "",
    "City": "Glendale",
    "State": "AZ",
    "Zipcode": "85301"
  },
  {
    "Address1": "6483 West 76th Avenue",
    "Address2": "",
    "City": "Arvada",
    "State": "CO",
    "Zipcode": "80003"
  },
  {
    "Address1": "5732 Jean Drive",
    "Address2": "",
    "City": "Union City",
    "State": "CA",
    "Zipcode": "94587"
  },
  {
    "Address1": "8221 Surf Drive",
    "Address2": "",
    "City": "Panama City",
    "State": "FL",
    "Zipcode": "32408"
  },
  {
    "Address1": "9101 Vanguard Drive",
    "Address2": "",
    "City": "Anchorage",
    "State": "AK",
    "Zipcode": "99507"
  },
  {
    "Address1": "18713 Shilstone Way",
    "Address2": "",
    "City": "Edmond",
    "State": "OK",
    "Zipcode": "73012"
  },
  {
    "Address1": "51185 Helmsman Street",
    "Address2": "",
    "City": "Kenai",
    "State": "AK",
    "Zipcode": "99611"
  },
  {
    "Address1": "128 East Oak Street",
    "Address2": "#3",
    "City": "Louisville",
    "State": "KY",
    "Zipcode": "40203"
  },
  {
    "Address1": "1222 Arcade Boulevard",
    "Address2": "",
    "City": "Sacramento",
    "State": "CA",
    "Zipcode": "95815"
  },
  {
    "Address1": "1405 Mercedes Avenue",
    "Address2": "APARTMENT G",
    "City": "Panama City",
    "State": "FL",
    "Zipcode": "32401"
  },
  {
    "Address1": "7024 Johnny Mercer Boulevard",
    "Address2": "",
    "City": "Savannah",
    "State": "GA",
    "Zipcode": "31410"
  },
  {
    "Address1": "3600 Pennsylvania Avenue",
    "Address2": "#APT 6",
    "City": "Fremont",
    "State": "CA",
    "Zipcode": "94536"
  },
  {
    "Address1": "312 North Cove Boulevard",
    "Address2": "",
    "City": "Panama City",
    "State": "FL",
    "Zipcode": "32401"
  },
  {
    "Address1": "3118 Sora Avenue",
    "Address2": "",
    "City": "Louisville",
    "State": "KY",
    "Zipcode": "40213"
  },
  {
    "Address1": "6420 Via Baron",
    "Address2": "",
    "City": "Rancho Palos Verdes",
    "State": "CA",
    "Zipcode": "90275"
  },
  {
    "Address1": "3321 Furman Boulevard",
    "Address2": "",
    "City": "Louisville",
    "State": "KY",
    "Zipcode": "40220"
  },
  {
    "Address1": "98 Lincoln Street",
    "Address2": "",
    "City": "Revere",
    "State": "MA",
    "Zipcode": "02151"
  },
  {
    "Address1": "984 Greendale Avenue",
    "Address2": "",
    "City": "Needham",
    "State": "MA",
    "Zipcode": "02492"
  },
  {
    "Address1": "239 Eastern Avenue",
    "Address2": "",
    "City": "Fayetteville",
    "State": "AR",
    "Zipcode": "72701"
  },
  {
    "Address1": "1106 Commanders Way South",
    "Address2": "",
    "City": "Annapolis",
    "State": "MD",
    "Zipcode": "21409"
  },
  {
    "Address1": "4927 Alvin Sperry Road",
    "Address2": "",
    "City": "Mount Juliet",
    "State": "TN",
    "Zipcode": "37122"
  },
  {
    "Address1": "1632 North Lunsford Avenue",
    "Address2": "",
    "City": "Fayetteville",
    "State": "AR",
    "Zipcode": "72701"
  },
  {
    "Address1": "2349 East Tall Oaks Drive",
    "Address2": "",
    "City": "Fayetteville",
    "State": "AR",
    "Zipcode": "72703"
  },
  {
    "Address1": "2036 Hermitage Hills Drive",
    "Address2": "",
    "City": "Gambrills",
    "State": "MD",
    "Zipcode": "21054"
  },
  {
    "Address1": "119 Oakland Street",
    "Address2": "",
    "City": "Manchester",
    "State": "CT",
    "Zipcode": "06042"
  },
  {
    "Address1": "37675 Fremont Boulevard",
    "Address2": "#APT 42",
    "City": "Fremont",
    "State": "CA",
    "Zipcode": "94536"
  },
  {
    "Address1": "3104 Southwest 46th Street",
    "Address2": "",
    "City": "Oklahoma City",
    "State": "OK",
    "Zipcode": "73119"
  },
  {
    "Address1": "2036 Gorgas Street",
    "Address2": "",
    "City": "Montgomery",
    "State": "AL",
    "Zipcode": "36106"
  },
  {
    "Address1": "11102 Little Rock Court",
    "Address2": "",
    "City": "Louisville",
    "State": "KY",
    "Zipcode": "40241"
  },
  {
    "Address1": "46 Deslauriers Street",
    "Address2": "",
    "City": "Chicopee",
    "State": "MA",
    "Zipcode": "01020"
  },
  {
    "Address1": "12 Red Fox Drive",
    "Address2": "",
    "City": "Savannah",
    "State": "GA",
    "Zipcode": "31419"
  },
  {
    "Address1": "503 Blackwood Terrace Southeast",
    "Address2": "",
    "City": "Calhoun",
    "State": "GA",
    "Zipcode": "30701"
  },
  {
    "Address1": "2223 North Fernwood Court",
    "Address2": "",
    "City": "Savannah",
    "State": "GA",
    "Zipcode": "31404"
  },
  {
    "Address1": "5444 Nicole Boulevard",
    "Address2": "",
    "City": "Panama City",
    "State": "FL",
    "Zipcode": "32404"
  },
  {
    "Address1": "849 East Victoria Street",
    "Address2": "#204",
    "City": "Carson",
    "State": "CA",
    "Zipcode": "90746"
  },
  {
    "Address1": "445 South Potomac Circle",
    "Address2": "",
    "City": "Aurora",
    "State": "CO",
    "Zipcode": "80012"
  },
  {
    "Address1": "201 East 9th Avenue",
    "Address2": "#APT 000102",
    "City": "Anchorage",
    "State": "AK",
    "Zipcode": "99501"
  },
  {
    "Address1": "3500 15th Street Northeast",
    "Address2": "",
    "City": "Washington",
    "State": "DC",
    "Zipcode": "20017"
  },
  {
    "Address1": "4981 Shirley Way",
    "Address2": "",
    "City": "Livermore",
    "State": "CA",
    "Zipcode": "94550"
  },
  {
    "Address1": "1300 Lemos Lane",
    "Address2": "",
    "City": "Fremont",
    "State": "CA",
    "Zipcode": "94539"
  },
  {
    "Address1": "5000 V Street Northwest",
    "Address2": "",
    "City": "Washington",
    "State": "DC",
    "Zipcode": "20007"
  },
  {
    "Address1": "6823 Forsythe Drive",
    "Address2": "",
    "City": "Panama City",
    "State": "FL",
    "Zipcode": "32404"
  },
  {
    "Address1": "1522 South 36th Street",
    "Address2": "",
    "City": "Louisville",
    "State": "KY",
    "Zipcode": "40211"
  },
  {
    "Address1": "313 Lone Oak Drive",
    "Address2": "",
    "City": "Norman",
    "State": "OK",
    "Zipcode": "73071"
  },
  {
    "Address1": "970 Old Oak Road",
    "Address2": "",
    "City": "Livermore",
    "State": "CA",
    "Zipcode": "94550"
  },
  {
    "Address1": "1653 Brooks Avenue",
    "Address2": "",
    "City": "Fayetteville",
    "State": "AR",
    "Zipcode": "72701"
  },
  {
    "Address1": "441 Merritt Avenue",
    "Address2": "",
    "City": "Oakland",
    "State": "CA",
    "Zipcode": "94610"
  },
  {
    "Address1": "632 North Pine Street",
    "Address2": "",
    "City": "Anchorage",
    "State": "AK",
    "Zipcode": "99508"
  }
]